registry_id,latitude,longitude,city_name,county_name,state_code,Zip_code
1.10E+11,36.09929,-84.10472,CLINTON,ANDERSON,TN,37716
1.10E+11,36.13978,-84.15335,CLINTON,ANDERSON,TN,37716
1.10E+11,36.00781,-84.229794,OAK RIDGE,ANDERSON,TN,37830
1.10E+11,36.10189,-84.10451,CLINTON,ANDERSON,TN,37716 4012
1.10E+11,36.102554,-84.120827,CLINTON,ANDERSON,TN,37716
1.10E+11,36.0173,-84.23402,OAK RIDGE,ANDERSON,TN,37831 0367
1.10E+11,35.9885,-84.22005,OAK RIDGE,ANDERSON,TN,37830
1.10E+11,36.10521,-84.10682,CLINTON,ANDERSON,TN,37716
1.10E+11,36.024758,-84.236642,OAK RIDGE,ANDERSON,TN,37831 0587
1.10E+11,36.6004,-86.532108,PORTLAND,ANDERSON COUNTY,TN,37148
1.10E+11,36.18127,-84.05133,ANDERSONVILLE,ANDERSON COUNTY,TN,37705
1.10E+11,36.09174,-84.11314,CLINTON,ANDERSON COUNTY,TN,37716
1.10E+11,36.10293,-84.12101,CLINTON,ANDERSON COUNTY,TN,37716
1.10E+11,36.09064,-84.10768,CLINTON,ANDERSON COUNTY,TN,37716
1.10E+11,36.0901,-84.11894,CLINTON,ANDERSON COUNTY,TN,37716
1.10E+11,35.9844,-84.2613,OAK RIDGE,ANDERSON COUNTY,TN,37830
1.10E+11,35.9844,-84.2613,OAK RIDGE,ANDERSON COUNTY,TN,37830
1.10E+11,35.91322,-84.3827,OAK RIDGE,ANDERSON COUNTY,TN,37830
1.10E+11,36.03016,-84.2313,OAK RIDGE,ANDERSON COUNTY,TN,37830
1.10E+11,36.00313,-84.23808,OAK RIDGE,ANDERSON COUNTY,TN,37830
1.10E+11,36.004314,-84.232031,OAK RIDGE,ANDERSON COUNTY,TN,37830
1.10E+11,36.15414,-84.08165,CLINTON,ANDERSON COUNTY,TN,37716
1.10E+11,36.0228,-84.1518,CLINTON,ANDERSON COUNTY,TN,37716
1.10E+11,36.09526,-84.10623,CLINTON,ANDERSON COUNTY,TN,37716
1.10E+11,36.1005,-84.12384,CLINTON,ANDERSON COUNTY,TN,37716
1.10E+11,35.975424,-84.234609,OAK RIDGE,ANDERSON COUNTY,TN,37830
1.10E+11,35.49287,-86.40281,SHELBYVILLE,BEDFORD,TN,37160
1.10E+11,35.49385,-86.41602,SHELBYVILLE,BEDFORD,TN,37160
1.10E+11,35.4741,-86.48818,SHELBYVILLE,BEDFORD,TN,37160
1.10E+11,35.47815,-86.47369,SHELBYVILLE,BEDFORD,TN,37160
1.10E+11,35.49461,-86.42346,SHELBYVILLE,BEDFORD,TN,37160
1.10E+11,35.51268,-86.32642,WARTRACE,BEDFORD,TN,37183
1.10E+11,35.430706,-86.441653,SHELBYVILLE,BEDFORD,TN,37160
1.10E+11,35.4977,-86.40218,SHELBYVILLE,BEDFORD,TN,37160
1.10E+11,35.48584,-86.46929,SHELBYVILLE,BEDFORD,TN,37160 0290
1.10E+11,35.4861,-86.47004,SHELBYVILLE,BEDFORD,TN,37160
1.10E+11,35.477114,-86.475054,SHELBYVILLE,BEDFORD COUNTY,TN,37160
1.10E+11,35.52158,-86.45475,SHELBYVILLE,BEDFORD COUNTY,TN,37160
1.10E+11,35.488261,-86.424323,SHELBYVILLE,BEDFORD COUNTY,TN,37160
1.10E+11,36.04617,-88.13014,CAMDEN,BENTON COUNTY,TN,38320
1.10E+11,35.61192,-85.20357,PIKEVILLE,BLEDSOE,TN,37367
1.10E+11,35.610436,-85.182322,PIKEVILLE,BLEDSOE,TN,37367
1.10E+11,35.61505,-85.193561,PIKEVILLE,BLEDSOE COUNTY,TN,37367
1.10E+11,35.63267,-85.20129,PIKEVILLE,BLEDSOE COUNTY,TN,37367
1.10E+11,35.75592,-84.08851,FRIENDSVILLE,BLOUNT,TN,37737
1.10E+11,35.75902,-84.0174,MARYVILLE,BLOUNT,TN,37801
1.10E+11,35.862098,-83.947995,ROCKFORD,BLOUNT,TN,37853
1.10E+11,35.75965,-84.01022,MARYVILLE,BLOUNT,TN,37801 3776
1.10E+11,35.70494,-84.07384,MARYVILLE,BLOUNT,TN,37801
1.10E+11,35.65477,-84.122093,MARYVILLE,BLOUNT,TN,37801
1.10E+11,35.673999,-84.084076,MARYVILLE,BLOUNT,TN,37801
1.10E+11,35.7681,-84.00326,MARYVILLE,BLOUNT,TN,37801
1.10E+11,35.814829,-83.99962,LOUISVILLE,BLOUNT,TN,37777
1.10E+11,35.827903,-83.951095,MARYVILLE,BLOUNT COUNTY,TN,37804
1.10E+11,35.74311,-84.04423,MARYVILLE,BLOUNT COUNTY,TN,37801
1.10E+11,35.863949,-83.948574,ROCKFORD,BLOUNT COUNTY,TN,37853
1.10E+11,35.811815,-83.969576,ALCOA,BLOUNT COUNTY,TN,37701
1.10E+11,35.862537,-83.935433,ROCKFORD,BLOUNT COUNTY,TN,37853
1.10E+11,35.75931,-84.01838,MARYVILLE,BLOUNT COUNTY,TN,37801
1.10E+11,35.86038,-83.94109,ROCKFORD,BLOUNT COUNTY,TN,37853
1.10E+11,35.82659,-83.95278,MARYVILLE,BLOUNT COUNTY,TN,37804
1.10E+11,35.82578,-83.95353,MARYVILLE,BLOUNT COUNTY,TN,37804
1.10E+11,35.650004,-84.132896,MARYVILLE,BLOUNT COUNTY,TN,37801
1.10E+11,35.7634,-84.0075,MARYVILLE,BLOUNT COUNTY,TN,37801
1.10E+11,35.79117,-84.021673,MARYVILLE,BLOUNT COUNTY,TN,37801
1.10E+11,35.17134,-84.83005,CLEVELAND,BRADLEY,TN,37323
1.10E+11,35.185236,-84.828199,CLEVELAND,BRADLEY,TN,37320
1.10E+11,35.13943,-84.88233,CLEVELAND,BRADLEY,TN,37311
1.10E+11,35.175125,-84.833735,CLEVELAND,BRADLEY,TN,37312
1.10E+11,35.148728,-84.880349,CLEVELAND,BRADLEY,TN,37311
1.10E+11,35.1379,-84.88702,CLEVELAND,BRADLEY,TN,37311
1.10E+11,35.18256,-84.82969,CLEVELAND,BRADLEY,TN,37312
1.10E+11,35.15912,-84.8661,CLEVELAND,BRADLEY,TN,37311
1.10E+11,35.13832,-84.90008,CLEVELAND,BRADLEY,TN,37311
1.10E+11,35.193026,-84.867653,CLEVELAND,BRADLEY,TN,37311
1.10E+11,35.1589,-84.87222,CLEVELAND,BRADLEY,TN,37320 1439
1.10E+11,35.15828,-84.87884,CLEVELAND,BRADLEY,TN,37311
1.10E+11,35.177648,-84.82683,CLEVELAND,BRADLEY,TN,37320 1439
1.10E+11,35.213611,-84.806667,CLEVELAND,BRADLEY,TN,37320
1.10E+11,35.19552,-84.85131,CLEVELAND,BRADLEY,TN,37311
1.10E+11,35.04373,-84.96481,CLEVELAND,BRADLEY,TN,37311
1.10E+11,35.308441,-84.782845,CHARLESTON,BRADLEY COUNTY,TN,37310
1.10E+11,35.15889,-84.86935,CLEVELAND,BRADLEY COUNTY,TN,37311
1.10E+11,35.2031,-84.8555,CLEVELAND,BRADLEY COUNTY,TN,37312
1.10E+11,35.1539,-84.875,CLEVELAND,BRADLEY COUNTY,TN,37311
1.10E+11,35.19901,-84.8689,CLEVELAND,BRADLEY COUNTY,TN,37312
1.10E+11,35.17984,-84.8311,CLEVELAND,BRADLEY COUNTY,TN,37312
1.10E+11,35.13342,-84.90276,CLEVELAND,BRADLEY COUNTY,TN,37311
1.10E+11,35.19403,-84.811611,CLEVELAND,BRADLEY COUNTY,TN,37323
1.10E+11,35.30757,-84.782966,CHARLESTON,BRADLEY COUNTY,TN,37310
1.10E+11,35.12522,-84.90735,CLEVELAND,BRADLEY COUNTY,TN,37311
1.10E+11,35.17087,-84.83607,CLEVELAND,BRADLEY COUNTY,TN,37312
1.10E+11,35.18567,-84.827931,CLEVELAND,BRADLEY COUNTY,TN,37312
1.10E+11,35.145087,-84.842232,CLEVELAND,BRADLEY COUNTY,TN,37323
1.10E+11,35.158494,-84.832794,CLEVELAND,BRADLEY COUNTY,TN,37323
1.10E+11,35.290966,-84.789677,CHARLESTON,BRADLEY COUNTY,TN,37310
1.10E+11,35.12395,-84.9756,MC DONALD,BRADLEY COUNTY,TN,37353
1.10E+11,36.313011,-84.181161,JACKSBORO,CAMPBELL,TN,37757
1.10E+11,36.383268,-84.120683,LA FOLLETTE,CAMPBELL,TN,37766
1.10E+11,36.582142,-84.134291,JELLICO,CAMPBELL,TN,37762 0538
1.10E+11,36.2579,-84.18371,CARYVILLE,CAMPBELL,TN,37714
1.10E+11,36.443056,-84.081667,LA FOLLETTE,CAMPBELL,TN,37766
1.10E+11,36.31714,-84.207,CARYVILLE,CAMPBELL COUNTY,TN,37714
1.10E+11,36.38244,-84.25379,PIONEER,CAMPBELL COUNTY,TN,37847
1.10E+11,35.81848,-86.07714,WOODBURY,CANNON,TN,37190
1.10E+11,36.08517,-88.46681,MC KENZIE,CARROLL,TN,38201
1.10E+11,36.140287,-88.530709,MC KENZIE,CARROLL,TN,38201
1.10E+11,36.150122,-88.508437,MC KENZIE,CARROLL,TN,38201 0217
1.10E+11,36.08178,-88.46941,MC KENZIE,CARROLL,TN,38201
1.10E+11,36.08785,-88.45873,MC KENZIE,CARROLL,TN,38201
1.10E+11,36.017346,-88.376487,HUNTINGDON,CARROLL,TN,38344
1.10E+11,36.01828,-88.381931,HUNTINGDON,CARROLL COUNTY,TN,38344
1.10E+11,35.85951,-88.695972,LAVINIA,CARROLL COUNTY,TN,38348
1.10E+11,36.016028,-88.389129,HUNTINGDON,CARROLL COUNTY,TN,38344
1.10E+11,35.960335,-88.407697,HUNTINGDON,CARROLL COUNTY,TN,38344
1.10E+11,36.017774,-88.373826,HUNTINGDON,CARROLL COUNTY,TN,38344
1.10E+11,36.32748,-82.20582,ELIZABETHTON,CARTER,TN,37643
1.10E+11,36.3479,-82.242646,ELIZABETHTON,CARTER,TN,37643
1.10E+11,36.259169,-82.323208,JOHNSON CITY,CARTER,TN,37601
1.10E+11,36.367722,-82.167482,ELIZABETHTON,CARTER,TN,37643
1.10E+11,36.35033,-82.21696,ELIZABETHTON,CARTER COUNTY,TN,37643
1.10E+11,36.3266,-82.20579,ELIZABETHTON,CARTER COUNTY,TN,37643
1.10E+11,36.36353,-82.184135,ELIZABETHTON,CARTER COUNTY,TN,37643
1.10E+11,36.259169,-82.323208,JOHNSON CITY,CARTER COUNTY,TN,37604
1.10E+11,36.36097,-82.18815,ELIZABETHTON,CARTER COUNTY,TN,37643
1.10E+11,36.333333,-82.2,ELIZABETHTON,CARTER COUNTY,TN,37643
1.10E+11,36.228163,-87.01491,ASHLAND CITY,CHEATHAM,TN,37015
1.10E+11,36.228376,-87.013188,ASHLAND CITY,CHEATHAM,TN,37015
1.10E+11,36.267895,-87.067841,ASHLAND CITY,CHEATHAM COUNTY,TN,37015
1.10E+11,36.220565,-87.002,ASHLAND CITY,CHEATHAM COUNTY,TN,37015
1.10E+11,36.2277,-87.01179,ASHLAND CITY,CHEATHAM COUNTY,TN,37015
1.10E+11,36.228226,-87.014741,ASHLAND CITY,CHEATHAM COUNTY,TN,37015
1.10E+11,35.47414,-88.69197,HENDERSON,CHESTER COUNTY,TN,38340
1.10E+11,35.45846,-88.66715,HENDERSON,CHESTER COUNTY,TN,38340
1.10E+11,36.43772,-83.58241,NEW TAZEWELL,CLAIBORNE,TN,37825
1.10E+11,36.44646,-83.56752,TAZEWELL,CLAIBORNE,TN,37879
1.10E+11,36.462087,-83.560763,TAZEWELL,CLAIBORNE,TN,37879
1.10E+11,36.4404,-83.57747,NEW TAZEWELL,CLAIBORNE,TN,37825
1.10E+11,36.44152,-83.59376,NEW TAZEWELL,CLAIBORNE COUNTY,TN,37825
1.10E+11,36.4252,-83.63119,NEW TAZEWELL,CLAIBORNE COUNTY,TN,37825
1.10E+11,36.48103,-83.53773,TAZEWELL,CLAIBORNE COUNTY,TN,37879
1.10E+11,36.425335,-83.63037,NEW TAZEWELL,CLAIBORNE COUNTY,TN,37825
1.10E+11,36.439304,-83.605593,NEW TAZEWELL,CLAIBORNE COUNTY,TN,37825
1.10E+11,36.550678,-85.511049,CELINA,CLAY,TN,38551
1.10E+11,36.02279,-83.20711,NEWPORT,COCKE,TN,37821
1.10E+11,35.98757,-83.203412,NEWPORT,COCKE,TN,37821
1.10E+11,35.96413,-83.17699,NEWPORT,COCKE,TN,37821
1.10E+11,35.98126,-83.20229,NEWPORT,COCKE,TN,37821
1.10E+11,35.987679,-83.203903,NEWPORT,COCKE,TN,37821
1.10E+11,35.976046,-83.22328,NEWPORT,COCKE,TN,37821
1.10E+11,35.98825,-83.20638,NEWPORT,COCKE COUNTY,TN,37821
1.10E+11,35.9864,-83.2019,NEWPORT,COCKE COUNTY,TN,37821
1.10E+11,36.01745,-83.20576,NEWPORT,COCKE COUNTY,TN,37821
1.10E+11,35.988056,-83.200556,NEWPORT,COCKE COUNTY,TN,37821
1.10E+11,35.36292,-86.18815,TULLAHOMA,COFFEE,TN,37388
1.10E+11,35.36648,-86.21898,TULLAHOMA,COFFEE,TN,37388
1.10E+11,35.37449,-86.17789,TULLAHOMA,COFFEE,TN,37388
1.10E+11,35.34841,-86.19403,TULLAHOMA,COFFEE,TN,37388
1.10E+11,35.36051,-86.21316,TULLAHOMA,COFFEE,TN,37388 8104
1.10E+11,35.3604,-86.20055,TULLAHOMA,COFFEE,TN,37388
1.10E+11,35.520708,-86.109145,MANCHESTER,COFFEE,TN,37355
1.10E+11,35.39051,-86.23816,TULLAHOMA,COFFEE,TN,37388 8104
1.10E+11,35.43957,-86.03344,MANCHESTER,COFFEE,TN,37355
1.10E+11,35.42453,-86.02259,MANCHESTER,COFFEE,TN,37355
1.10E+11,35.37782,-86.23812,TULLAHOMA,COFFEE,TN,37388 8104
1.10E+11,35.50286,-86.07561,MANCHESTER,COFFEE,TN,37355
1.10E+11,35.435117,-86.026316,MANCHESTER,COFFEE,TN,37355
1.10E+11,35.383413,-86.237061,TULLAHOMA,COFFEE,TN,37388
1.10E+11,35.498,-86.0715,MANCHESTER,COFFEE COUNTY,TN,37355
1.10E+11,35.43542,-86.02862,MANCHESTER,COFFEE COUNTY,TN,37355
1.10E+11,35.3715,-86.21812,TULLAHOMA,COFFEE COUNTY,TN,37388
1.10E+11,35.47555,-86.08499,MANCHESTER,COFFEE COUNTY,TN,37355 2256
1.10E+11,35.36061,-86.19311,TULLAHOMA,COFFEE COUNTY,TN,37388
1.10E+11,35.3778,-86.0456,ARNOLD AFB,COFFEE COUNTY,TN,37389 2327
1.10E+11,35.43673,-86.03067,MANCHESTER,COFFEE COUNTY,TN,37355
1.10E+11,35.43704,-86.0245,MANCHESTER,COFFEE COUNTY,TN,37355
1.10E+11,35.739284,-89.083608,BELLS,CROCKETT,TN,38006
1.10E+11,35.793056,-89.146389,ALAMO,CROCKETT,TN,38001
1.10E+11,35.716111,-89.087222,BELLS,CROCKETT COUNTY,TN,38006
1.10E+11,35.778017,-89.1293,ALAMO,CROCKETT COUNTY,TN,38001
1.10E+11,35.97616,-85.01537,CROSSVILLE,CUMBERLAND,TN,38555
1.10E+11,35.952846,-85.03493,CROSSVILLE,CUMBERLAND,TN,38557
1.10E+11,35.96609,-85.0446,CROSSVILLE,CUMBERLAND,TN,38555
1.10E+11,36.04804,-85.20786,MONTEREY,CUMBERLAND,TN,38574
1.10E+11,35.954643,-84.96684,CROSSVILLE,CUMBERLAND,TN,38555 2878
1.10E+11,35.9769,-85.02368,CROSSVILLE,CUMBERLAND,TN,38555
1.10E+11,35.96724,-85.04056,CROSSVILLE,CUMBERLAND,TN,38555
1.10E+11,35.9832,-85.01838,CROSSVILLE,CUMBERLAND COUNTY,TN,38555
1.10E+11,35.978,-85.0192,CROSSVILLE,CUMBERLAND COUNTY,TN,38555
1.10E+11,35.99979,-85.05327,CROSSVILLE,CUMBERLAND COUNTY,TN,38555
1.10E+11,36.00142,-85.05538,CROSSVILLE,CUMBERLAND COUNTY,TN,38555
1.10E+11,35.95848,-84.992,CROSSVILLE,CUMBERLAND COUNTY,TN,38555
1.10E+11,36.04815,-85.20804,MONTEREY,CUMBERLAND COUNTY,TN,38574
1.10E+11,36.02507,-86.59624,ANTIOCH,DAVIDSON,TN,37013
1.10E+11,36.07457,-86.68182,ANTIOCH,DAVIDSON,TN,37013
1.10E+11,36.32563,-86.71016,GOODLETTSVILLE,DAVIDSON,TN,37072
1.10E+11,36.17561,-86.63416,HERMITAGE,DAVIDSON,TN,37076
1.10E+11,36.02415,-86.60797,LA VERGNE,DAVIDSON,TN,37086
1.10E+11,36.26944,-86.6561,OLD HICKORY,DAVIDSON,TN,37138
1.10E+11,36.13202,-86.77241,NASHVILLE,DAVIDSON,TN,37204
1.10E+11,36.105597,-86.755905,NASHVILLE,DAVIDSON,TN,37204
1.10E+11,36.112,-86.76409,NASHVILLE,DAVIDSON,TN,37204
1.10E+11,36.1625,-86.745278,NASHVILLE,DAVIDSON,TN,37206
1.10E+11,36.22526,-86.78985,NASHVILLE,DAVIDSON,TN,37207
1.10E+11,36.168384,-86.793529,NASHVILLE,DAVIDSON,TN,37208
1.10E+11,36.15813,-86.74532,NASHVILLE,DAVIDSON,TN,37210
1.10E+11,36.140302,-86.736885,NASHVILLE,DAVIDSON,TN,37210
1.10E+11,36.09622,-86.74511,NASHVILLE,DAVIDSON,TN,37211
1.10E+11,36.08584,-86.68867,NASHVILLE,DAVIDSON,TN,37211
1.10E+11,36.14904,-86.66764,NASHVILLE,DAVIDSON,TN,37214
1.10E+11,36.09992,-86.76091,NASHVILLE,DAVIDSON,TN,37204
1.10E+11,36.09259,-86.74991,NASHVILLE,DAVIDSON,TN,37204
1.10E+11,36.16752,-86.85902,NASHVILLE,DAVIDSON,TN,37209
1.10E+11,36.02328,-86.60618,LA VERGNE,DAVIDSON,TN,37086
1.10E+11,36.17691,-86.79378,NASHVILLE,DAVIDSON,TN,37208
1.10E+11,36.204557,-86.748227,NASHVILLE,DAVIDSON,TN,37207
1.10E+11,36.10491,-86.75458,NASHVILLE,DAVIDSON,TN,37204
1.10E+11,36.15334,-86.70274,NASHVILLE,DAVIDSON,TN,37210
1.10E+11,36.16489,-86.76982,NASHVILLE,DAVIDSON,TN,37213
1.10E+11,36.326178,-86.711601,GOODLETTSVILLE,DAVIDSON,TN,37072
1.10E+11,36.01615,-86.60154,LA VERGNE,DAVIDSON,TN,37086
1.10E+11,36.11097,-86.755265,NASHVILLE,DAVIDSON,TN,37204
1.10E+11,36.1392,-86.76278,NASHVILLE,DAVIDSON,TN,37210 0186
1.10E+11,36.01884,-86.60702,NASHVILLE,DAVIDSON,TN,37086
1.10E+11,36.17068,-86.87796,NASHVILLE,DAVIDSON,TN,37209
1.10E+11,36.16107,-86.75787,NASHVILLE,DAVIDSON,TN,37213
1.10E+11,36.294519,-86.697169,MADISON,DAVIDSON,TN,37116 0359
1.10E+11,36.225081,-86.786075,NASHVILLE,DAVIDSON,TN,37207
1.10E+11,36.17924,-86.77588,NASHVILLE,DAVIDSON,TN,37207
1.10E+11,36.158,-86.81115,NASHVILLE,DAVIDSON,TN,37209
1.10E+11,36.16515,-86.85394,NASHVILLE,DAVIDSON,TN,37209
1.10E+11,36.1472,-86.72229,NASHVILLE,DAVIDSON,TN,37210
1.10E+11,36.10995,-86.75818,NASHVILLE,DAVIDSON,TN,37204
1.10E+11,36.132291,-86.757457,NASHVILLE,DAVIDSON,TN,37211
1.10E+11,36.17804,-86.89189,NASHVILLE,DAVIDSON,TN,37209 1060
1.10E+11,36.14226,-86.73745,NASHVILLE,DAVIDSON,TN,37210
1.10E+11,36.14384,-86.72722,NASHVILLE,DAVIDSON,TN,37210
1.10E+11,36.11293,-86.68898,NASHVILLE,DAVIDSON,TN,37217
1.10E+11,36.089861,-86.688853,NASHVILLE,DAVIDSON,TN,37211
1.10E+11,36.090199,-86.689292,NASHVILLE,DAVIDSON,TN,37211
1.10E+11,36.01947,-86.62428,ANTIOCH,DAVIDSON,TN,37013
1.10E+11,36.28239,-86.68929,MADISON,DAVIDSON,TN,37115
1.10E+11,36.13675,-86.71759,NASHVILLE,DAVIDSON,TN,37204
1.10E+11,36.25884,-86.6542,OLD HICKORY,DAVIDSON,TN,37138 0391
1.10E+11,36.24345,-86.63606,OLD HICKORY,DAVIDSON,TN,37138
1.10E+11,36.1554,-86.7968,NASHVILLE,DAVIDSON,TN,37203
1.10E+11,36.154911,-86.782021,NASHVILLE,DAVIDSON,TN,37203 4180
1.10E+11,36.107737,-86.752541,MELROSE,DAVIDSON,TN,37204 3758
1.10E+11,36.17834,-86.77598,NASHVILLE,DAVIDSON,TN,37207
1.10E+11,36.18274,-86.78458,NASHVILLE,DAVIDSON,TN,37208
1.10E+11,36.16965,-86.86226,NASHVILLE,DAVIDSON,TN,37209
1.10E+11,36.15791,-86.810025,NASHVILLE,DAVIDSON,TN,37209
1.10E+11,36.141928,-86.727365,NASHVILLE,DAVIDSON,TN,37210
1.10E+11,36.134,-86.74835,NASHVILLE,DAVIDSON,TN,37210 1022
1.10E+11,36.14939,-86.67866,NASHVILLE,DAVIDSON,TN,37214
1.10E+11,36.127115,-86.770582,NASHVILLE,DAVIDSON,TN,37204
1.10E+11,36.011294,-86.606565,LA VERGNE,DAVIDSON,TN,37086
1.10E+11,36.09163,-86.69115,NASHVILLE,DAVIDSON,TN,37211
1.10E+11,36.177462,-86.785877,NASHVILLE,DAVIDSON,TN,37208
1.10E+11,36.24444,-86.67834,MADISON,DAVIDSON,TN,37115
1.10E+11,36.163625,-86.859231,NASHVILLE,DAVIDSON,TN,37209
1.10E+11,36.12595,-86.768,NASHVILLE,DAVIDSON,TN,37204
1.10E+11,36.152872,-86.704016,NASHVILLE,DAVIDSON,TN,37217 3784
1.10E+11,36.267295,-86.660321,OLD HICKORY,DAVIDSON,TN,37138
1.10E+11,36.13426,-86.71855,NASHVILLE,DAVIDSON,TN,37217 1146
1.10E+11,36.15263,-86.70467,NASHVILLE,DAVIDSON,TN,37210
1.10E+11,36.138346,-86.738323,NASHVILLE,DAVIDSON,TN,37210 4677
1.10E+11,36.22341,-86.78761,NASHVILLE,DAVIDSON,TN,37207
1.10E+11,36.184372,-86.881111,NASHVILLE,DAVIDSON,TN,37209
1.10E+11,36.18511,-86.77877,NASHVILLE,DAVIDSON,TN,37207
1.10E+11,36.04498,-86.60283,ANTIOCH,DAVIDSON,TN,37013
1.10E+11,36.1422,-86.72955,NASHVILLE,DAVIDSON,TN,37210
1.10E+11,36.39021,-86.69226,GOODLETTSVILLE,DAVIDSON,TN,37072
1.10E+11,36.27464,-86.68942,MADISON,DAVIDSON,TN,37116
1.10E+11,36.125552,-86.927274,NASHVILLE,DAVIDSON,TN,37209
1.10E+11,36.16394,-86.8667,NASHVILLE,DAVIDSON,TN,37209
1.10E+11,36.16394,-86.8667,NASHVILLE,DAVIDSON,TN,37209
1.10E+11,36.16408,-86.8406,NASHVILLE,DAVIDSON,TN,37209
1.10E+11,36.16855,-86.78832,NASHVILLE,DAVIDSON,TN,37203
1.10E+11,36.120058,-86.696386,NASHVILLE,DAVIDSON,TN,37217
1.10E+11,36.13419,-86.77379,NASHVILLE,DAVIDSON,TN,37203
1.10E+11,36.09775,-86.74952,NASHVILLE,DAVIDSON,TN,37204
1.10E+11,36.16294,-86.849152,NASHVILLE,DAVIDSON,TN,37209
1.10E+11,36.1471,-86.8248,NASHVILLE,DAVIDSON,TN,37209
1.10E+11,36.187182,-86.877657,NASHVILLE,DAVIDSON,TN,37209
1.10E+11,36.17181,-86.85924,NASHVILLE,DAVIDSON,TN,37209
1.10E+11,36.18062,-86.87712,NASHVILLE,DAVIDSON,TN,37209
1.10E+11,36.17133,-86.87734,NASHVILLE,DAVIDSON,TN,37209
1.10E+11,36.17108,-86.8856,NASHVILLE,DAVIDSON,TN,37209
1.10E+11,36.13816,-86.75489,NASHVILLE,DAVIDSON,TN,37210
1.10E+11,36.142222,-86.726944,NASHVILLE,DAVIDSON,TN,37210
1.10E+11,36.15584,-86.75823,NASHVILLE,DAVIDSON,TN,37210
1.10E+11,36.145556,-86.751389,NASHVILLE,DAVIDSON,TN,37210
1.10E+11,36.11496,-86.74105,NASHVILLE,DAVIDSON,TN,37210
1.10E+11,36.18762,-86.83964,NASHVILLE,DAVIDSON,TN,37218
1.10E+11,36.180906,-86.827665,NASHVILLE,DAVIDSON,TN,37208
1.10E+11,36.09285,-86.74668,NASHVILLE,DAVIDSON,TN,37211
1.10E+11,36.2267,-86.78189,NASHVILLE,DAVIDSON,TN,37207
1.10E+11,36.203812,-86.808617,NASHVILLE,DAVIDSON,TN,37207
1.10E+11,36.16139,-86.73287,NASHVILLE,DAVIDSON,TN,37210
1.10E+11,36.26876,-86.66741,OLD HICKORY,DAVIDSON,TN,37138
1.10E+11,36.269576,-86.660015,OLD HICKORY,DAVIDSON,TN,37138
1.10E+11,36.01362,-86.60137,LA VERGNE,DAVIDSON,TN,37086
1.10E+11,36.10781,-86.75565,NASHVILLE,DAVIDSON,TN,37204
1.10E+11,36.32531,-86.70716,GOODLETTSVILLE,DAVIDSON,TN,37072
1.10E+11,36.159209,-86.739246,NASHVILLE,DAVIDSON,TN,37210
1.10E+11,36.184453,-86.83323,NASHVILLE,DAVIDSON,TN,37218
1.10E+11,36.15784,-86.79179,NASHVILLE,DAVIDSON,TN,37203
1.10E+11,36.16964,-86.77424,NASHVILLE,DAVIDSON,TN,37213
1.10E+11,36.176413,-86.784337,NASHVILLE,DAVIDSON,TN,37208
1.10E+11,36.1259,-86.74233,NASHVILLE,DAVIDSON,TN,37210
1.10E+11,36.169326,-86.859509,NASHVILLE,DAVIDSON,TN,37209
1.10E+11,36.162,-86.72176,NASHVILLE,DAVIDSON,TN,37210
1.10E+11,36.15811,-86.74549,NASHVILLE,DAVIDSON,TN,37210
1.10E+11,36.01812,-86.59934,LA VERGNE,DAVIDSON,TN,37086
1.10E+11,36.11451,-86.75422,NASHVILLE,DAVIDSON,TN,37211
1.10E+11,36.27898,-86.67007,OLD HICKORY,DAVIDSON,TN,37138
1.10E+11,36.1823,-86.6239,HERMITAGE,DAVIDSON,TN,37076
1.10E+11,36.18514,-86.87862,NASHVILLE,DAVIDSON,TN,37209
1.10E+11,36.18579,-86.87885,NASHVILLE,DAVIDSON,TN,37209
1.10E+11,36.15999,-86.73699,NASHVILLE,DAVIDSON,TN,37210
1.10E+11,36.16034,-86.73595,NASHVILLE,DAVIDSON,TN,37210
1.10E+11,36.1851,-86.778621,NASHVILLE,DAVIDSON,TN,37207
1.10E+11,36.130563,-86.917601,NASHVILLE,DAVIDSON,TN,37209
1.10E+11,36.176827,-86.895115,NASHVILLE,DAVIDSON,TN,37209
1.10E+11,36.03626,-86.63242,ANTIOCH,DAVIDSON,TN,37013
1.10E+11,36.090874,-86.690168,NASHVILLE,DAVIDSON,TN,37211
1.10E+11,36.313594,-86.704849,GOODLETTSVILLE,DAVIDSON,TN,37072
1.10E+11,36.093692,-86.703606,NASHVILLE,DAVIDSON,TN,37211
1.10E+11,36.017861,-86.599381,LA VERGNE,DAVIDSON,TN,37086
1.10E+11,36.08646,-86.76202,NASHVILLE,DAVIDSON,TN,37204
1.10E+11,36.207634,-86.883665,NASHVILLE,DAVIDSON,TN,37218
1.10E+11,36.161618,-86.884203,NASHVILLE,DAVIDSON,TN,37209
1.10E+11,35.63849,-88.12678,PARSONS,DECATUR,TN,38363
1.10E+11,35.63742,-88.125132,PARSONS,DECATUR,TN,38363
1.10E+11,35.520702,-88.21563,SCOTTS HILL,DECATUR,TN,38374
1.10E+11,35.62829,-88.03572,PARSONS,DECATUR COUNTY,TN,38363
1.10E+11,35.6895,-88.11172,PARSONS,DECATUR COUNTY,TN,38363
1.10E+11,36.08131,-86.03222,ALEXANDRIA,DEKALB,TN,37012
1.10E+11,35.94856,-85.836605,SMITHVILLE,DEKALB,TN,37166
1.10E+11,35.991198,-85.79792,SMITHVILLE,DEKALB,TN,37166
1.10E+11,35.966982,-85.851941,SMITHVILLE,DEKALB COUNTY,TN,37166
1.10E+11,35.95798,-85.79531,SMITHVILLE,DEKALB COUNTY,TN,37166
1.10E+11,35.927874,-85.861967,SMITHVILLE,DEKALB COUNTY,TN,37166
1.10E+11,36.047003,-87.343447,DICKSON,DICKSON,TN,37055
1.10E+11,36.071076,-87.389774,DICKSON,DICKSON,TN,37055
1.10E+11,36.06256,-87.34745,DICKSON,DICKSON,TN,37055
1.10E+11,36.04548,-87.33725,DICKSON,DICKSON,TN,37055
1.10E+11,36.07072,-87.38023,DICKSON,DICKSON,TN,37055
1.10E+11,36.055955,-87.353355,DICKSON,DICKSON,TN,37055
1.10E+11,36.084171,-87.400816,DICKSON,DICKSON,TN,37055
1.10E+11,36.104014,-87.214964,WHITE BLUFF,DICKSON,TN,37187
1.10E+11,36.04581,-87.34045,DICKSON,DICKSON COUNTY,TN,37055
1.10E+11,36.04913,-87.34741,DICKSON,DICKSON COUNTY,TN,37055
1.10E+11,36.05428,-87.35067,DICKSON,DICKSON COUNTY,TN,37055
1.10E+11,36.045416,-87.349059,DICKSON,DICKSON COUNTY,TN,37055
1.10E+11,36.1118,-87.26236,WHITE BLUFF,DICKSON COUNTY,TN,37187
1.10E+11,36.04624,-87.34327,DICKSON,DICKSON COUNTY,TN,37055
1.10E+11,36.040556,-87.329444,DICKSON,DICKSON COUNTY,TN,37055
1.10E+11,36.0441,-87.33764,DICKSON,DICKSON COUNTY,TN,37055
1.10E+11,36.037537,-87.326232,DICKSON,DICKSON COUNTY,TN,37055
1.10E+11,36.06587,-89.33541,DYERSBURG,DYER,TN,38024
1.10E+11,36.06505,-89.33755,DYERSBURG,DYER,TN,38024
1.10E+11,36.061172,-89.342223,DYERSBURG,DYER,TN,38024
1.10E+11,36.03562,-89.41978,DYERSBURG,DYER,TN,38024
1.10E+11,36.104307,-89.333475,NEWBERN,DYER,TN,38059
1.10E+11,36.121,-89.2473,NEWBERN,DYER,TN,38059
1.10E+11,36.05031,-89.33998,DYERSBURG,DYER,TN,38024
1.10E+11,36.0386,-89.3675,DYERSBURG,DYER,TN,38024
1.10E+11,36.12091,-89.24291,NEWBERN,DYER,TN,38059
1.10E+11,36.03124,-89.39478,DYERSBURG,DYER COUNTY,TN,38024
1.10E+11,36.03546,-89.41691,DYERSBURG,DYER COUNTY,TN,38024
1.10E+11,36.139167,-89.272222,NEWBERN,DYER COUNTY,TN,38059
1.10E+11,36.0495,-89.34294,DYERSBURG,DYER COUNTY,TN,38024
1.10E+11,36.10547,-89.25067,NEWBERN,DYER COUNTY,TN,38059
1.10E+11,36.03227,-89.39592,DYERSBURG,DYER COUNTY,TN,38024
1.10E+11,36.07008,-89.33477,DYERSBURG,DYER COUNTY,TN,38024
1.10E+11,36.128015,-89.244571,NEWBERN,DYER COUNTY,TN,38059
1.10E+11,36.071968,-89.328067,DYERSBURG,DYER COUNTY,TN,38024
1.10E+11,36.082085,-89.337959,DYERSBURG,DYER COUNTY,TN,38024
1.10E+11,35.241667,-89.341667,SOMERVILLE,FAYETTE,TN,38068
1.10E+11,35.049167,-89.548611,ROSSVILLE,FAYETTE,TN,38066
1.10E+11,35.04258,-89.63029,PIPERTON,FAYETTE,TN,38017
1.10E+11,35.052958,-89.440706,MOSCOW,FAYETTE,TN,38057
1.10E+11,35.04432,-89.54993,ROSSVILLE,FAYETTE,TN,38066
1.10E+11,35.041758,-89.625081,COLLIERVILLE,FAYETTE COUNTY,TN,38017
1.10E+11,35.063281,-89.374489,MOSCOW,FAYETTE COUNTY,TN,38057
1.10E+11,35.00097,-89.619131,PIPERTON,FAYETTE COUNTY,TN,38017
1.10E+11,35.0016,-89.5817,ROSSVILLE,FAYETTE COUNTY,TN,38066
1.10E+11,35.225794,-89.538701,OAKLAND,FAYETTE COUNTY,TN,38060
1.10E+11,36.43754,-84.94445,JAMESTOWN,FENTRESS,TN,38556
1.10E+11,35.36143,-86.18681,WINCHESTER,FRANKLIN,TN,37398
1.10E+11,35.187966,-86.10737,WINCHESTER,FRANKLIN,TN,37398
1.10E+11,35.16542,-86.05155,WINCHESTER,FRANKLIN,TN,37398
1.10E+11,35.19566,-86.08377,WINCHESTER,FRANKLIN COUNTY,TN,37398
1.10E+11,35.1975,-86.0789,WINCHESTER,FRANKLIN COUNTY,TN,37398
1.10E+11,35.27344,-86.12665,ESTILL SPRINGS,FRANKLIN COUNTY,TN,37330
1.10E+11,35.19569,-86.08516,WINCHESTER,FRANKLIN COUNTY,TN,37398
1.10E+11,35.2278,-86.05318,DECHERD,FRANKLIN COUNTY,TN,37324
1.10E+11,35.19562,-86.08008,WINCHESTER,FRANKLIN COUNTY,TN,37398
1.10E+11,35.83441,-88.92019,HUMBOLDT,GIBSON,TN,38343
1.10E+11,35.83238,-88.91532,HUMBOLDT,GIBSON,TN,38343
1.10E+11,35.82805,-88.90583,HUMBOLDT,GIBSON,TN,38343
1.10E+11,35.90588,-88.75882,MILAN,GIBSON,TN,38358
1.10E+11,35.88361,-88.75586,MILAN,GIBSON,TN,38358
1.10E+11,35.8327,-88.92199,HUMBOLDT,GIBSON,TN,38343
1.10E+11,35.83605,-88.89752,HUMBOLDT,GIBSON,TN,38343
1.10E+11,35.95551,-88.94972,TRENTON,GIBSON,TN,38382
1.10E+11,35.844254,-88.915322,HUMBOLDT,GIBSON,TN,38343
1.10E+11,35.91195,-88.75993,MILAN,GIBSON,TN,38358 0030
1.10E+11,36.06781,-88.99168,DYER,GIBSON,TN,38330
1.10E+11,35.90592,-88.75627,MILAN,GIBSON,TN,38358
1.10E+11,35.82427,-88.94058,HUMBOLDT,GIBSON,TN,38343
1.10E+11,36.09235,-88.99666,DYER,GIBSON,TN,38330
1.10E+11,35.93374,-88.72859,MILAN,GIBSON,TN,38358
1.10E+11,35.87759,-88.757686,MILAN,GIBSON,TN,38358
1.10E+11,35.88132,-88.76105,MILAN,GIBSON,TN,38358
1.10E+11,35.83826,-88.92238,HUMBOLDT,GIBSON COUNTY,TN,38343
1.10E+11,35.8924,-88.75777,MILAN,GIBSON COUNTY,TN,38358
1.10E+11,35.9041,-88.7603,MILAN,GIBSON COUNTY,TN,38358
1.10E+11,35.96047,-88.94955,TRENTON,GIBSON COUNTY,TN,38382
1.10E+11,35.94367,-88.94669,TRENTON,GIBSON COUNTY,TN,38382
1.10E+11,35.9448,-88.94878,TRENTON,GIBSON COUNTY,TN,38382
1.10E+11,35.889,-88.9322,HUMBOLDT,GIBSON COUNTY,TN,38343
1.10E+11,35.910374,-88.718382,MILAN,GIBSON COUNTY,TN,38358
1.10E+11,35.910374,-88.718382,MILAN,GIBSON COUNTY,TN,38358
1.10E+11,35.847458,-88.916696,HUMBOLDT,GIBSON COUNTY,TN,38343
1.10E+11,35.899744,-88.75981,MILAN,GIBSON COUNTY,TN,38358
1.10E+11,35.207724,-87.062344,PULASKI,GILES,TN,38478
1.10E+11,35.209568,-87.061902,PULASKI,GILES,TN,38478
1.10E+11,35.054,-86.88299,ELKTON,GILES,TN,38455
1.10E+11,35.227855,-87.068545,PULASKI,GILES,TN,38478
1.10E+11,35.199228,-87.041934,PULASKI,GILES,TN,38478
1.10E+11,34.993497,-86.85917,ARDMORE,GILES,TN,38449
1.10E+11,35.22419,-86.99879,PULASKI,GILES,TN,38478
1.10E+11,35.152184,-87.000099,PULASKI,GILES,TN,38478
1.10E+11,35.22742,-87.069935,PULASKI,GILES COUNTY,TN,38478
1.10E+11,35.2186,-87.05944,PULASKI,GILES COUNTY,TN,38478
1.10E+11,34.99823,-86.84467,ARDMORE,GILES COUNTY,TN,38449
1.10E+11,35.18081,-87.04636,PULASKI,GILES COUNTY,TN,38478
1.10E+11,35.219279,-87.063639,PULASKI,GILES COUNTY,TN,38478
1.10E+11,35.21047,-87.06061,PULASKI,GILES COUNTY,TN,38478
1.10E+11,35.210356,-87.057527,PULASKI,GILES COUNTY,TN,38478
1.10E+11,36.187674,-83.515076,RUTLEDGE,GRAINGER,TN,37861
1.10E+11,36.373537,-83.40705,THORN HILL,GRAINGER,TN,37881
1.10E+11,36.296865,-83.48146,RUTLEDGE,GRAINGER COUNTY,TN,37861
1.10E+11,36.343516,-83.269945,BEAN STATION,GRAINGER COUNTY,TN,37708
1.10E+11,36.20049,-82.77694,AFTON,GREENE,TN,37616
1.10E+11,36.1614,-82.81898,GREENEVILLE,GREENE,TN,37745
1.10E+11,36.18176,-82.80619,GREENEVILLE,GREENE,TN,37745
1.10E+11,36.1895,-82.78667,GREENEVILLE,GREENE,TN,37744
1.10E+11,36.1987,-82.80901,GREENEVILLE,GREENE,TN,37745
1.10E+11,36.17719,-82.81098,GREENEVILLE,GREENE,TN,37744
1.10E+11,36.16279,-82.81868,GREENEVILLE,GREENE,TN,37745
1.10E+11,36.163349,-82.830727,GREENEVILLE,GREENE,TN,37743
1.10E+11,36.17764,-82.81662,GREENEVILLE,GREENE,TN,37743
1.10E+11,36.15414,-82.852,GREENEVILLE,GREENE,TN,37743
1.10E+11,36.18911,-82.79609,GREENEVILLE,GREENE,TN,37743
1.10E+11,36.072006,-82.834842,GREENEVILLE,GREENE,TN,37744
1.10E+11,36.18886,-82.77543,GREENEVILLE,GREENE,TN,37745
1.10E+11,36.18848,-82.79713,GREENEVILLE,GREENE,TN,37744
1.10E+11,36.18433,-82.7976,GREENEVILLE,GREENE,TN,37744 0880
1.10E+11,36.15414,-82.852,GREENEVILLE,GREENE,TN,37743
1.10E+11,36.182734,-82.805245,GREENEVILLE,GREENE,TN,37743
1.10E+11,36.22354,-82.66477,LIMESTONE,GREENE,TN,37681
1.10E+11,36.171448,-82.819408,GREENEVILLE,GREENE,TN,37745
1.10E+11,36.173081,-82.812597,GREENEVILLE,GREENE,TN,37744 1210
1.10E+11,36.19465,-82.73947,AFTON,GREENE COUNTY,TN,37616
1.10E+11,36.175189,-82.900654,GREENEVILLE,GREENE COUNTY,TN,37743
1.10E+11,36.195831,-82.743441,GREENEVILLE,GREENE COUNTY,TN,37745
1.10E+11,36.197,-82.77771,GREENEVILLE,GREENE COUNTY,TN,37745
1.10E+11,36.186475,-82.961077,MOSHEIM,GREENE COUNTY,TN,37818
1.10E+11,36.19096,-82.969,MOSHEIM,GREENE COUNTY,TN,37818
1.10E+11,36.17684,-82.81167,GREENEVILLE,GREENE COUNTY,TN,37745
1.10E+11,36.19411,-82.99774,MIDWAY,GREENE COUNTY,TN,37809
1.10E+11,36.18291,-82.80466,GREENEVILLE,GREENE COUNTY,TN,37745
1.10E+11,36.183088,-82.804064,GREENEVILLE,GREENE COUNTY,TN,37743
1.10E+11,36.18789,-82.84193,GREENEVILLE,GREENE COUNTY,TN,37745
1.10E+11,36.19397,-83.00307,MIDWAY,GREENE COUNTY,TN,37809
1.10E+11,36.1839,-82.80658,GREENEVILLE,GREENE COUNTY,TN,37745
1.10E+11,36.18391,-82.80336,GREENEVILLE,GREENE COUNTY,TN,37745
1.10E+11,36.19891,-83.01398,MIDWAY,GREENE COUNTY,TN,37809
1.10E+11,36.15165,-82.88916,GREENEVILLE,GREENE COUNTY,TN,37743
1.10E+11,36.174226,-82.836104,GREENEVILLE,GREENE COUNTY,TN,37745
1.10E+11,36.1939,-83.00266,MIDWAY,GREENE COUNTY,TN,37809
1.10E+11,36.17697,-82.90224,GREENEVILLE,GREENE COUNTY,TN,37743
1.10E+11,36.176758,-82.903878,GREENEVILLE,GREENE COUNTY,TN,37743
1.10E+11,36.17538,-82.83546,GREENEVILLE,GREENE COUNTY,TN,37745
1.10E+11,36.18815,-82.79759,GREENEVILLE,GREENE COUNTY,TN,37745
1.10E+11,36.17746,-82.80826,GREENEVILLE,GREENE COUNTY,TN,37745
1.10E+11,36.17785,-82.81674,GREENEVILLE,GREENE COUNTY,TN,37745
1.10E+11,36.17057,-83.38549,MORRISTOWN,HAMBLEN,TN,37813
1.10E+11,36.20331,-83.30848,MORRISTOWN,HAMBLEN,TN,37814
1.10E+11,36.172023,-83.390265,MORRISTOWN,HAMBLEN,TN,37814
1.10E+11,36.2495,-83.20688,MORRISTOWN,HAMBLEN,TN,37814
1.10E+11,36.249058,-83.211104,MORRISTOWN,HAMBLEN,TN,37813
1.10E+11,36.16847,-83.39178,MORRISTOWN,HAMBLEN,TN,37814
1.10E+11,36.29414,-83.15392,WHITESBURG,HAMBLEN,TN,37891
1.10E+11,36.154083,-83.206333,LOWLAND,HAMBLEN,TN,37778
1.10E+11,36.204722,-83.312222,MORRISTOWN,HAMBLEN,TN,37813
1.10E+11,36.213545,-83.290664,MORRISTOWN,HAMBLEN,TN,37813
1.10E+11,36.20492,-83.3253,MORRISTOWN,HAMBLEN,TN,37814
1.10E+11,36.24876,-83.20861,MORRISTOWN,HAMBLEN,TN,37813
1.10E+11,36.24028,-83.21164,MORRISTOWN,HAMBLEN,TN,37814
1.10E+11,36.21804,-83.2778,MORRISTOWN,HAMBLEN,TN,37813
1.10E+11,36.25475,-83.21585,RUSSELLVILLE,HAMBLEN,TN,37860
1.10E+11,36.17101,-83.38959,MORRISTOWN,HAMBLEN,TN,37814
1.10E+11,36.20735,-83.28824,MORRISTOWN,HAMBLEN,TN,37815
1.10E+11,36.24104,-83.20984,MORRISTOWN,HAMBLEN,TN,37815
1.10E+11,36.153332,-83.204163,MORRISTOWN,HAMBLEN,TN,37813
1.10E+11,36.20614,-83.31278,MORRISTOWN,HAMBLEN,TN,37814
1.10E+11,36.148889,-83.279167,MORRISTOWN,HAMBLEN,TN,37814
1.10E+11,36.216865,-83.282362,MORRISTOWN,HAMBLEN,TN,37814
1.10E+11,36.24073,-83.23055,MORRISTOWN,HAMBLEN,TN,37813
1.10E+11,36.23163,-83.24358,MORRISTOWN,HAMBLEN,TN,37813
1.10E+11,36.205556,-83.340278,TALBOTT,HAMBLEN,TN,37877
1.10E+11,36.249814,-83.206141,MORRISTOWN,HAMBLEN,TN,37813
1.10E+11,36.154083,-83.206333,LOWLAND,HAMBLEN,TN,37778 0301
1.10E+11,36.25046,-83.2021,MORRISTOWN,HAMBLEN COUNTY,TN,37813
1.10E+11,36.16595,-83.39392,MORRISTOWN,HAMBLEN COUNTY,TN,37814
1.10E+11,36.24314,-83.21118,MORRISTOWN,HAMBLEN COUNTY,TN,37813
1.10E+11,36.25043,-83.21466,MORRISTOWN,HAMBLEN COUNTY,TN,37860
1.10E+11,36.24615,-83.20489,MORRISTOWN,HAMBLEN COUNTY,TN,37813
1.10E+11,36.24629,-83.21433,MORRISTOWN,HAMBLEN COUNTY,TN,37813
1.10E+11,36.20358,-83.31561,MORRISTOWN,HAMBLEN COUNTY,TN,37813
1.10E+11,36.20336,-83.32254,MORRISTOWN,HAMBLEN COUNTY,TN,37813
1.10E+11,36.20561,-83.30661,MORRISTOWN,HAMBLEN COUNTY,TN,37813
1.10E+11,36.16466,-83.39496,MORRISTOWN,HAMBLEN COUNTY,TN,37814
1.10E+11,36.16687,-83.40238,MORRISTOWN,HAMBLEN COUNTY,TN,37814
1.10E+11,36.170639,-83.389955,MORRISTOWN,HAMBLEN COUNTY,TN,37814
1.10E+11,36.16754,-83.39257,MORRISTOWN,HAMBLEN COUNTY,TN,37814
1.10E+11,36.178299,-83.371457,MORRISTOWN,HAMBLEN COUNTY,TN,37813
1.10E+11,36.13932,-83.29465,MORRISTOWN,HAMBLEN COUNTY,TN,37813
1.10E+11,36.138717,-83.289283,MORRISTOWN,HAMBLEN COUNTY,TN,37813
1.10E+11,36.25048,-83.20459,MORRISTOWN,HAMBLEN COUNTY,TN,37813
1.10E+11,36.188395,-83.336495,MORRISTOWN,HAMBLEN COUNTY,TN,37813
1.10E+11,35.09293,-85.062111,OOLTEWAH,HAMILTON,TN,37363
1.10E+11,35.02481,-85.31827,CHATTANOOGA,HAMILTON,TN,37408
1.10E+11,35.284338,-85.180316,SODDY-DAISY,HAMILTON,TN,37379
1.10E+11,35.03098,-85.29374,CHATTANOOGA,HAMILTON,TN,37401
1.10E+11,35.05087,-85.32084,CHATTANOOGA,HAMILTON,TN,37402
1.10E+11,35.026,-85.32098,CHATTANOOGA,HAMILTON,TN,37408
1.10E+11,35.08449,-85.31577,CHATTANOOGA,HAMILTON,TN,37404
1.10E+11,35.05456,-85.2825,CHATTANOOGA,HAMILTON,TN,37403
1.10E+11,35.026958,-85.280838,CHATTANOOGA,HAMILTON,TN,37404
1.10E+11,35.066987,-85.335969,CHATTANOOGA,HAMILTON,TN,37405
1.10E+11,35.000021,-85.313759,CHATTANOOGA,HAMILTON,TN,37409
1.10E+11,35.07647,-85.33363,CHATTANOOGA,HAMILTON,TN,37405
1.10E+11,35.06322,-85.31054,CHATTANOOGA,HAMILTON,TN,37405
1.10E+11,35.08581,-85.26798,CHATTANOOGA,HAMILTON,TN,37406
1.10E+11,35.022752,-85.319402,CHATTANOOGA,HAMILTON,TN,37408
1.10E+11,34.998491,-85.315511,CHATTANOOGA,HAMILTON,TN,37410
1.10E+11,35.07377,-85.19116,CHATTANOOGA,HAMILTON,TN,37416
1.10E+11,35.013451,-85.385437,CHATTANOOGA,HAMILTON,TN,37419
1.10E+11,35.066778,-85.200774,CHATTANOOGA,HAMILTON,TN,37421
1.10E+11,34.989361,-85.318687,CHATTANOOGA,HAMILTON,TN,37409
1.10E+11,35.10865,-85.247269,CHATTANOOGA,HAMILTON,TN,37415 3899
1.10E+11,35.10897,-85.24318,CHATTANOOGA,HAMILTON,TN,37415
1.10E+11,35.025581,-85.30368,CHATTANOOGA,HAMILTON,TN,37408
1.10E+11,35.10268,-85.05656,OOLTEWAH,HAMILTON,TN,37363
1.10E+11,35.024059,-85.276314,CHATTANOOGA,HAMILTON,TN,37404
1.10E+11,35.095451,-85.24131,CHATTANOOGA,HAMILTON,TN,37406
1.10E+11,34.99628,-85.3156,CHATTANOOGA,HAMILTON,TN,37409
1.10E+11,35.0121,-85.329872,CHATTANOOGA,HAMILTON,TN,37409
1.10E+11,34.99723,-85.29456,CHATTANOOGA,HAMILTON,TN,37407
1.10E+11,35.08442,-85.24899,CHATTANOOGA,HAMILTON,TN,37406
1.10E+11,34.993536,-85.305642,CHATTANOOGA,HAMILTON,TN,37410
1.10E+11,35.02817,-85.31816,CHATTANOOGA,HAMILTON,TN,37408
1.10E+11,35.01257,-85.38564,CHATTANOOGA,HAMILTON,TN,37419
1.10E+11,35.014951,-85.326552,CHATTANOOGA,HAMILTON,TN,37409
1.10E+11,35.022202,-85.273422,CHATTANOOGA,HAMILTON,TN,37404
1.10E+11,35.06529,-85.31033,CHATTANOOGA,HAMILTON,TN,37405 3843
1.10E+11,35.05828,-85.25399,CHATTANOOGA,HAMILTON,TN,37406
1.10E+11,35.06475,-85.25424,CHATTANOOGA,HAMILTON,TN,37406
1.10E+11,35.081352,-85.250724,CHATTANOOGA,HAMILTON,TN,37406
1.10E+11,35.07306,-85.25353,CHATTANOOGA,HAMILTON,TN,37406
1.10E+11,34.997423,-85.298365,CHATTANOOGA,HAMILTON,TN,37407
1.10E+11,35.02748,-85.30048,CHATTANOOGA,HAMILTON,TN,37408
1.10E+11,35.03829,-85.32319,CHATTANOOGA,HAMILTON,TN,37408
1.10E+11,35.009491,-85.389458,CHATTANOOGA,HAMILTON,TN,37419
1.10E+11,35.090144,-85.264081,CHATTANOOGA,HAMILTON,TN,37406
1.10E+11,35.06705,-85.20155,CHATTANOOGA,HAMILTON,TN,37421
1.10E+11,35.072597,-85.194949,CHATTANOOGA,HAMILTON,TN,37416
1.10E+11,35.109261,-85.238457,CHATTANOOGA,HAMILTON,TN,37415
1.10E+11,35.056068,-85.312341,CHATTANOOGA,HAMILTON,TN,37402
1.10E+11,35.00488,-85.27675,CHATTANOOGA,HAMILTON,TN,37410
1.10E+11,35.07104,-85.1788,CHATTANOOGA,HAMILTON,TN,37416
1.10E+11,35.0289,-85.309769,CHATTANOOGA,HAMILTON,TN,37408
1.10E+11,35.01404,-85.31201,CHATTANOOGA,HAMILTON,TN,37401
1.10E+11,35.06067,-85.27564,CHATTANOOGA,HAMILTON,TN,37406
1.10E+11,35.07202,-85.27217,CHATTANOOGA,HAMILTON,TN,37406
1.10E+11,35.041148,-85.32062,CHATTANOOGA,HAMILTON,TN,37402
1.10E+11,35.08581,-85.26798,CHATTANOOGA,HAMILTON,TN,37406 4711
1.10E+11,35.077091,-85.059288,OOLTEWAH,HAMILTON COUNTY,TN,37363
1.10E+11,35.03994,-85.316116,CHATTANOOGA,HAMILTON COUNTY,TN,37402
1.10E+11,35.036577,-85.311296,CHATTANOOGA,HAMILTON COUNTY,TN,37408
1.10E+11,35.046514,-85.324186,CHATTANOOGA,HAMILTON COUNTY,TN,37402
1.10E+11,35.06335,-85.3162,CHATTANOOGA,HAMILTON COUNTY,TN,37405
1.10E+11,35.0887,-85.329611,CHATTANOOGA,HAMILTON COUNTY,TN,37405
1.10E+11,35.07139,-85.33157,CHATTANOOGA,HAMILTON COUNTY,TN,37405
1.10E+11,35.06213,-85.261192,CHATTANOOGA,HAMILTON COUNTY,TN,37406
1.10E+11,35.085701,-85.255203,CHATTANOOGA,HAMILTON COUNTY,TN,37406
1.10E+11,35.07592,-85.277367,CHATTANOOGA,HAMILTON COUNTY,TN,37406
1.10E+11,35.093058,-85.258925,CHATTANOOGA,HAMILTON COUNTY,TN,37406
1.10E+11,35.062556,-85.223061,CHATTANOOGA,HAMILTON COUNTY,TN,37406
1.10E+11,35.093899,-85.242508,CHATTANOOGA,HAMILTON COUNTY,TN,37406
1.10E+11,35.06118,-85.274261,CHATTANOOGA,HAMILTON COUNTY,TN,37406
1.10E+11,35.08308,-85.270302,CHATTANOOGA,HAMILTON COUNTY,TN,37406
1.10E+11,35.081032,-85.25592,CHATTANOOGA,HAMILTON COUNTY,TN,37406
1.10E+11,35.007389,-85.37812,CHATTANOOGA,HAMILTON COUNTY,TN,37409
1.10E+11,35.084259,-85.27523,CHATTANOOGA,HAMILTON COUNTY,TN,37406
1.10E+11,35.083279,-85.274597,CHATTANOOGA,HAMILTON COUNTY,TN,37406
1.10E+11,35.039619,-85.301971,CHATTANOOGA,HAMILTON COUNTY,TN,37402
1.10E+11,35.222888,-85.092159,SODDY DAISY,HAMILTON COUNTY,TN,37379
1.10E+11,35.083809,-85.27459,CHATTANOOGA,HAMILTON COUNTY,TN,37406
1.10E+11,35.045668,-85.192299,CHATTANOOGA,HAMILTON COUNTY,TN,37421
1.10E+11,34.996368,-85.300491,CHATTANOOGA,HAMILTON COUNTY,TN,37407
1.10E+11,35.09391,-85.25342,CHATTANOOGA,HAMILTON COUNTY,TN,37406
1.10E+11,35.038712,-85.200348,CHATTANOOGA,HAMILTON COUNTY,TN,37421
1.10E+11,35.01624,-85.32301,CHATTANOOGA,HAMILTON COUNTY,TN,37409
1.10E+11,35.083366,-85.084272,OOLTEWAH,HAMILTON COUNTY,TN,37363
1.10E+11,35.054489,-85.329048,CHATTANOOGA,HAMILTON COUNTY,TN,37405
1.10E+11,35.06156,-85.08882,OOLTEWAH,HAMILTON COUNTY,TN,37363
1.10E+11,34.988217,-85.309048,CHATTANOOGA,HAMILTON COUNTY,TN,37410
1.10E+11,34.996071,-85.393257,CHATTANOOGA,HAMILTON COUNTY,TN,37419
1.10E+11,35.24459,-85.18395,SODDY DAISY,HAMILTON COUNTY,TN,37379
1.10E+11,35.093551,-85.240905,CHATTANOOGA,HAMILTON COUNTY,TN,37406
1.10E+11,34.98485,-85.39373,CHATTANOOGA,HAMILTON COUNTY,TN,37419
1.10E+11,35.005402,-85.376663,CHATTANOOGA,HAMILTON COUNTY,TN,37419
1.10E+11,35.06216,-85.311958,CHATTANOOGA,HAMILTON COUNTY,TN,37405
1.10E+11,35.012614,-85.329112,CHATTANOOGA,HAMILTON COUNTY,TN,37409
1.10E+11,35.04184,-85.30625,CHATTANOOGA,HAMILTON COUNTY,TN,37403
1.10E+11,35.233589,-85.194153,SODDY DAISY,HAMILTON COUNTY,TN,37379
1.10E+11,35.076012,-85.273491,CHATTANOOGA,HAMILTON COUNTY,TN,37406
1.10E+11,35.061315,-85.323309,CHATTANOOGA,HAMILTON COUNTY,TN,37405
1.10E+11,35.03084,-85.28528,CHATTANOOGA,HAMILTON COUNTY,TN,37404
1.10E+11,35.05661,-85.207802,CHATTANOOGA,HAMILTON COUNTY,TN,37421
1.10E+11,35.087711,-85.25779,CHATTANOOGA,HAMILTON COUNTY,TN,37406
1.10E+11,35.081572,-85.260499,CHATTANOOGA,HAMILTON COUNTY,TN,37406
1.10E+11,35.028,-85.319054,CHATTANOOGA,HAMILTON COUNTY,TN,37408
1.10E+11,35.000889,-85.297989,CHATTANOOGA,HAMILTON COUNTY,TN,37421
1.10E+11,35.000221,-85.298332,CHATTANOOGA,HAMILTON COUNTY,TN,37407
1.10E+11,35.08648,-85.2452,CHATTANOOGA,HAMILTON COUNTY,TN,37406
1.10E+11,35.071015,-85.163019,CHATTANOOGA,HAMILTON COUNTY,TN,37416
1.10E+11,35.076118,-85.259148,CHATTANOOGA,HAMILTON COUNTY,TN,37406 3633
1.10E+11,35.07502,-85.337627,CHATTANOOGA,HAMILTON COUNTY,TN,37405
1.10E+11,35.348049,-85.132004,BAKEWELL,HAMILTON COUNTY,TN,37304
1.10E+11,34.997921,-85.318581,CHATTANOOGA,HAMILTON COUNTY,TN,37410
1.10E+11,35.05584,-85.20435,CHATTANOOGA,HAMILTON COUNTY,TN,37411 1136
1.10E+11,35.002819,-85.29792,CHATTANOOGA,HAMILTON COUNTY,TN,37407
1.10E+11,35.07378,-85.333038,CHATTANOOGA,HAMILTON COUNTY,TN,37405
1.10E+11,35.0723,-85.27399,CHATTANOOGA,HAMILTON COUNTY,TN,37406
1.10E+11,35.06922,-85.1927,CHATTANOOGA,HAMILTON COUNTY,TN,37416
1.10E+11,35.076187,-85.128104,CHATTANOOGA,HAMILTON COUNTY,TN,37416
1.10E+11,35.348904,-85.137023,SALE CREEK,HAMILTON COUNTY,TN,37373
1.10E+11,35.07587,-85.15019,CHATTANOOGA,HAMILTON COUNTY,TN,37416
1.10E+11,35.02256,-85.19364,CHATTANOOGA,HAMILTON COUNTY,TN,37421
1.10E+11,35.077338,-85.154073,CHATTANOOGA,HAMILTON COUNTY,TN,37416
1.10E+11,35.03066,-85.2848,CHATTANOOGA,HAMILTON COUNTY,TN,37404
1.10E+11,35.113864,-85.24333,CHATTANOOGA,HAMILTON COUNTY,TN,37415
1.10E+11,35.10865,-85.247269,CHATTANOOGA,HAMILTON COUNTY,TN,37415
1.10E+11,35.07903,-85.25063,CHATTANOOGA,HAMILTON COUNTY,TN,37406
1.10E+11,35.07872,-85.06773,OOLTEWAH,HAMILTON COUNTY,TN,37363
1.10E+11,35.02335,-85.1938,CHATTANOOGA,HAMILTON COUNTY,TN,37421
1.10E+11,35.101197,-85.345342,CHATTANOOGA,HAMILTON COUNTY,TN,37405
1.10E+11,35.05956,-85.26347,CHATTANOOGA,HAMILTON COUNTY,TN,37406
1.10E+11,36.53047,-83.22265,SNEEDVILLE,HANCOCK,TN,37869
1.10E+11,36.538734,-83.2084,SNEEDVILLE,HANCOCK,TN,37869
1.10E+11,35.264803,-88.985037,BOLIVAR,HARDEMAN,TN,38008
1.10E+11,35.05356,-89.18831,GRAND JUNCTION,HARDEMAN,TN,38039 0569
1.10E+11,35.04944,-88.88944,MIDDLETON,HARDEMAN,TN,38052
1.10E+11,35.133838,-89.137337,HICKORY VALLEY,HARDEMAN,TN,38042
1.10E+11,35.254286,-89.01926,BOLIVAR,HARDEMAN,TN,38008
1.10E+11,35.354802,-88.950339,TOONE,HARDEMAN COUNTY,TN,38381
1.10E+11,35.04811,-89.19488,GRAND JUNCTION,HARDEMAN COUNTY,TN,38039
1.10E+11,35.169868,-88.221623,SAVANNAH,HARDIN,TN,38372
1.10E+11,35.236529,-88.216667,SAVANNAH,HARDIN,TN,38372
1.10E+11,35.219742,-88.246277,SAVANNAH,HARDIN,TN,38372
1.10E+11,35.22328,-88.23544,SAVANNAH,HARDIN,TN,38372
1.10E+11,35.222363,-88.323967,CRUMP,HARDIN,TN,38327
1.10E+11,35.165092,-88.215359,SAVANNAH,HARDIN COUNTY,TN,38372
1.10E+11,35.16307,-88.2284,SAVANNAH,HARDIN COUNTY,TN,38372
1.10E+11,35.031503,-88.289757,COUNCE,HARDIN COUNTY,TN,38326
1.10E+11,35.044181,-88.265252,COUNCE,HARDIN COUNTY,TN,38326
1.10E+11,36.40382,-83.01338,ROGERSVILLE,HAWKINS,TN,37857
1.10E+11,36.459781,-82.827847,SURGOINSVILLE,HAWKINS,TN,37873
1.10E+11,36.27057,-83.07362,BULLS GAP,HAWKINS,TN,37711
1.10E+11,36.47328,-82.81296,SURGOINSVILLE,HAWKINS,TN,37873
1.10E+11,36.50742,-82.76972,NEW CANTON,HAWKINS,TN,37642
1.10E+11,36.50388,-82.76972,CHURCH HILL,HAWKINS COUNTY,TN,37642
1.10E+11,36.550455,-82.634794,KINGSPORT,HAWKINS COUNTY,TN,37660
1.10E+11,36.38755,-83.03557,ROGERSVILLE,HAWKINS COUNTY,TN,37857
1.10E+11,36.38495,-83.05035,ROGERSVILLE,HAWKINS COUNTY,TN,37857
1.10E+11,36.47291,-82.80677,SURGOINSVILLE,HAWKINS COUNTY,TN,37873
1.10E+11,36.497,-82.77946,CHURCH HILL,HAWKINS COUNTY,TN,37642
1.10E+11,36.376285,-82.961143,ROGERSVILLE,HAWKINS COUNTY,TN,37857
1.10E+11,36.27286,-83.07215,BULLS GAP,HAWKINS COUNTY,TN,37711
1.10E+11,36.38948,-83.03281,ROGERSVILLE,HAWKINS COUNTY,TN,37857
1.10E+11,36.47004,-82.8136,SURGOINSVILLE,HAWKINS COUNTY,TN,37873
1.10E+11,36.51216,-82.7581,CHURCH HILL,HAWKINS COUNTY,TN,37642
1.10E+11,36.47004,-82.8136,SURGOINSVILLE,HAWKINS COUNTY,TN,37873
1.10E+11,36.50706,-82.796094,SURGOINSVILLE,HAWKINS COUNTY,TN,37873
1.10E+11,35.60045,-89.23861,BROWNSVILLE,HAYWOOD,TN,38012
1.10E+11,35.60413,-89.24338,BROWNSVILLE,HAYWOOD,TN,38012
1.10E+11,35.60269,-89.2313,BROWNSVILLE,HAYWOOD,TN,38012 0418
1.10E+11,35.6076,-89.2377,BROWNSVILLE,HAYWOOD COUNTY,TN,38012
1.10E+11,35.670784,-89.360672,BROWNSVILLE,HAYWOOD COUNTY,TN,38012
1.10E+11,35.551111,-89.241667,BROWNSVILLE,HAYWOOD COUNTY,TN,38012
1.10E+11,35.59761,-89.23136,BROWNSVILLE,HAYWOOD COUNTY,TN,38012
1.10E+11,35.6499,-89.3925,BROWNSVILLE,HAYWOOD COUNTY,TN,38012
1.10E+11,35.706786,-88.387648,LEXINGTON,HENDERSON,TN,38351
1.10E+11,35.624533,-88.417127,LEXINGTON,HENDERSON,TN,38351
1.10E+11,35.62731,-88.41245,LEXINGTON,HENDERSON,TN,38351
1.10E+11,35.65563,-88.38372,LEXINGTON,HENDERSON,TN,38351
1.10E+11,35.66409,-88.37774,LEXINGTON,HENDERSON,TN,38351
1.10E+11,35.65669,-88.40867,LEXINGTON,HENDERSON,TN,38351
1.10E+11,35.624374,-88.413399,LEXINGTON,HENDERSON COUNTY,TN,38351
1.10E+11,35.69036,-88.38263,LEXINGTON,HENDERSON COUNTY,TN,38351
1.10E+11,35.69912,-88.38362,LEXINGTON,HENDERSON COUNTY,TN,38351
1.10E+11,35.69833,-88.38374,LEXINGTON,HENDERSON COUNTY,TN,38351
1.10E+11,35.712531,-88.379084,LEXINGTON,HENDERSON COUNTY,TN,38351
1.10E+11,35.66508,-88.37743,LEXINGTON,HENDERSON COUNTY,TN,38351
1.10E+11,35.719736,-88.381552,LEXINGTON,HENDERSON COUNTY,TN,38351
1.10E+11,36.201549,-88.42726,HENRY,HENRY,TN,38231
1.10E+11,36.30557,-88.28052,PARIS,HENRY,TN,38242
1.10E+11,36.297053,-88.34018,PARIS,HENRY,TN,38242
1.10E+11,36.327678,-88.324494,PARIS,HENRY,TN,38242
1.10E+11,36.20012,-88.416765,HENRY,HENRY,TN,38231
1.10E+11,36.273449,-88.307032,PARIS,HENRY,TN,38242
1.10E+11,36.317675,-88.276103,PARIS,HENRY,TN,38242
1.10E+11,36.20225,-88.415659,HENRY,HENRY,TN,38231
1.10E+11,36.30746,-88.25991,PARIS,HENRY,TN,38242
1.10E+11,36.30746,-88.25991,PARIS,HENRY COUNTY,TN,38242
1.10E+11,36.30044,-88.36325,PARIS,HENRY COUNTY,TN,38242
1.10E+11,36.157483,-88.511116,MC KENZIE,HENRY COUNTY,TN,38201
1.10E+11,36.31111,-88.26188,PARIS,HENRY COUNTY,TN,38242
1.10E+11,36.30044,-88.36325,PARIS,HENRY COUNTY,TN,38242
1.10E+11,35.769266,-87.473066,CENTERVILLE,HICKMAN,TN,37033
1.10E+11,35.839256,-87.445514,CENTERVILLE,HICKMAN,TN,37033
1.10E+11,35.762222,-87.491944,CENTERVILLE,HICKMAN,TN,37033
1.10E+11,36.093731,-87.653929,MC EWEN,HUMPHREYS,TN,37101
1.10E+11,35.982076,-87.705716,MC EWEN,HUMPHREYS,TN,37101
1.10E+11,36.08816,-87.792527,WAVERLY,HUMPHREYS,TN,37185
1.10E+11,35.99622,-87.979395,NEW JOHNSONVILLE,HUMPHREYS COUNTY,TN,37134
1.10E+11,36.0278,-87.9861,NEW JOHNSONVILLE,HUMPHREYS COUNTY,TN,37134
1.10E+11,36.07506,-87.950031,WAVERLY,HUMPHREYS COUNTY,TN,37185
1.10E+11,35.997342,-87.981733,NEW JOHNSONVILLE,HUMPHREYS COUNTY,TN,37134
1.10E+11,36.043056,-87.981667,NEW JOHNSONVILLE,HUMPHREYS COUNTY,TN,37134
1.10E+11,36.083371,-87.93641,WAVERLY,HUMPHREYS COUNTY,TN,37185
1.10E+11,36.049722,-87.983889,NEW JOHNSONVILLE,HUMPHREYS COUNTY,TN,37134
1.10E+11,36.073056,-87.919444,WAVERLY,HUMPHREYS COUNTY,TN,37185
1.10E+11,36.383392,-85.641365,GAINESBORO,JACKSON COUNTY,TN,38562
1.10E+11,36.37861,-85.63956,GAINESBORO,JACKSON COUNTY,TN,38562
1.10E+11,36.38637,-85.63678,GAINESBORO,JACKSON COUNTY,TN,38562
1.10E+11,36.03264,-83.42328,DANDRIDGE,JEFFERSON,TN,37725
1.10E+11,36.076332,-83.639878,STRAWBERRY PLAINS,JEFFERSON,TN,37871
1.10E+11,36.12869,-83.47342,JEFFERSON CITY,JEFFERSON,TN,37760
1.10E+11,35.93063,-83.33872,DANDRIDGE,JEFFERSON,TN,37725
1.10E+11,36.24246,-83.20644,MORRISTOWN,JEFFERSON,TN,37814
1.10E+11,36.135367,-83.473229,JEFFERSON CITY,JEFFERSON,TN,37760
1.10E+11,36.113462,-83.477062,JEFFERSON CITY,JEFFERSON,TN,37760
1.10E+11,36.03317,-83.42373,DANDRIDGE,JEFFERSON,TN,37725
1.10E+11,36.109834,-83.515469,JEFFERSON CITY,JEFFERSON COUNTY,TN,37760
1.10E+11,36.02634,-83.71224,NEW MARKET,JEFFERSON COUNTY,TN,37820
1.10E+11,35.929405,-83.348148,DANDRIDGE,JEFFERSON COUNTY,TN,37725
1.10E+11,36.103253,-83.273273,WHITE PINE,JEFFERSON COUNTY,TN,37890
1.10E+11,36.10736,-83.49505,JEFFERSON CITY,JEFFERSON COUNTY,TN,37760
1.10E+11,36.139429,-83.451951,JEFFERSON CITY,JEFFERSON COUNTY,TN,37760
1.10E+11,36.535236,-81.782456,MOUNTAIN CITY,JOHNSON,TN,37683
1.10E+11,36.44854,-81.88068,MOUNTAIN CITY,JOHNSON COUNTY,TN,37683
1.10E+11,35.95331,-83.94096,KNOXVILLE,KNOX,TN,37919
1.10E+11,35.94147,-83.83179,KNOXVILLE,KNOX,TN,37914
1.10E+11,35.957582,-83.825537,KNOXVILLE,KNOX,TN,37914
1.10E+11,35.94835,-83.83816,KNOXVILLE,KNOX,TN,37914
1.10E+11,35.95909,-83.820319,KNOXVILLE,KNOX,TN,37914
1.10E+11,35.994672,-83.938907,KNOXVILLE,KNOX,TN,37917
1.10E+11,35.973056,-83.918056,KNOXVILLE,KNOX,TN,37917
1.10E+11,35.948344,-83.836562,KNOXVILLE,KNOX,TN,37914
1.10E+11,35.95951,-84.01363,KNOXVILLE,KNOX,TN,37921
1.10E+11,35.95909,-84.00837,KNOXVILLE,KNOX,TN,37921
1.10E+11,35.962581,-83.995742,KNOXVILLE,KNOX,TN,37921
1.10E+11,35.96855,-84.12327,KNOXVILLE,KNOX,TN,37931
1.10E+11,35.91666,-84.15002,KNOXVILLE,KNOX,TN,37933
1.10E+11,36.051914,-83.991003,POWELL,KNOX,TN,37849
1.10E+11,35.969722,-84.12175,KNOXVILLE,KNOX,TN,37901
1.10E+11,35.95259,-83.831368,KNOXVILLE,KNOX,TN,37914
1.10E+11,35.941784,-83.821192,KNOXVILLE,KNOX,TN,37914
1.10E+11,35.983782,-83.949797,KNOXVILLE,KNOX,TN,37921
1.10E+11,35.971895,-83.916367,KNOXVILLE,KNOX,TN,37915
1.10E+11,35.98093,-83.89602,KNOXVILLE,KNOX,TN,37915
1.10E+11,35.995169,-83.905062,KNOXVILLE,KNOX,TN,37917
1.10E+11,35.9851,-83.91457,KNOXVILLE,KNOX,TN,37917
1.10E+11,35.951282,-83.964488,KNOXVILLE,KNOX,TN,37919
1.10E+11,35.968201,-83.989059,KNOXVILLE,KNOX,TN,37921 5594
1.10E+11,35.91377,-84.14209,KNOXVILLE,KNOX,TN,37923
1.10E+11,35.947262,-83.837721,KNOXVILLE,KNOX,TN,37914
1.10E+11,35.95461,-83.82907,KNOXVILLE,KNOX,TN,37914
1.10E+11,35.962495,-84.011583,KNOXVILLE,KNOX,TN,37921
1.10E+11,35.962123,-83.997484,KNOXVILLE,KNOX,TN,37921
1.10E+11,35.95339,-83.94078,KNOXVILLE,KNOX,TN,37920 0500
1.10E+11,35.9668,-84.13969,KNOXVILLE,KNOX,TN,37931
1.10E+11,35.910376,-84.137812,KNOXVILLE,KNOX,TN,37932
1.10E+11,35.965442,-83.943703,KNOXVILLE,KNOX,TN,37921
1.10E+11,36.07887,-83.88371,KNOXVILLE,KNOX,TN,37918
1.10E+11,35.894995,-83.791386,KNOXVILLE,KNOX,TN,37920
1.10E+11,35.97469,-84.05914,KNOXVILLE,KNOX,TN,37931
1.10E+11,36.11997,-83.82121,CORRYTON,KNOX,TN,37721
1.10E+11,35.965486,-83.99039,KNOXVILLE,KNOX,TN,37921
1.10E+11,35.97894,-83.9679,KNOXVILLE,KNOX,TN,37921
1.10E+11,35.909157,-84.135355,KNOXVILLE,KNOX,TN,37932
1.10E+11,35.966781,-83.99166,KNOXVILLE,KNOX,TN,37921
1.10E+11,35.963373,-83.893505,KNOXVILLE,KNOX,TN,37915
1.10E+11,36.0268,-83.84112,KNOXVILLE,KNOX,TN,37914
1.10E+11,35.95282,-83.86058,KNOXVILLE,KNOX,TN,37920
1.10E+11,36.07001,-83.73057,MASCOT,KNOX,TN,37806 1521
1.10E+11,36.07361,-83.73085,MASCOT,KNOX COUNTY,TN,37806
1.10E+11,35.942306,-83.838118,KNOXVILLE,KNOX COUNTY,TN,37914
1.10E+11,35.949094,-83.844698,KNOXVILLE,KNOX COUNTY,TN,37914
1.10E+11,36.06859,-83.93029,KNOXVILLE,KNOX COUNTY,TN,37918
1.10E+11,35.97812,-83.95645,KNOXVILLE,KNOX COUNTY,TN,37921
1.10E+11,35.961111,-83.941389,KNOXVILLE,KNOX COUNTY,TN,37921
1.10E+11,35.95866,-83.82751,KNOXVILLE,KNOX COUNTY,TN,37914
1.10E+11,36.002851,-84.024525,KNOXVILLE,KNOX COUNTY,TN,37921
1.10E+11,35.96358,-84.0019,KNOXVILLE,KNOX COUNTY,TN,37921
1.10E+11,36.032309,-83.894905,KNOXVILLE,KNOX COUNTY,TN,37918
1.10E+11,35.9121,-84.13346,KNOXVILLE,KNOX COUNTY,TN,37932
1.10E+11,36.06311,-83.70596,MASCOT,KNOX COUNTY,TN,37806
1.10E+11,36.046011,-83.722858,STRAWBERRY PLAINS,KNOX COUNTY,TN,37871
1.10E+11,35.959661,-83.909117,KNOXVILLE,KNOX COUNTY,TN,37920
1.10E+11,36.022505,-83.834408,KNOXVILLE,KNOX COUNTY,TN,37924
1.10E+11,35.95087,-83.9201,KNOXVILLE,KNOX COUNTY,TN,37916
1.10E+11,35.9722,-84.05477,KNOXVILLE,KNOX COUNTY,TN,37921
1.10E+11,35.95806,-83.95028,KNOXVILLE,KNOX COUNTY,TN,37919
1.10E+11,35.91038,-84.13778,KNOXVILLE,KNOX COUNTY,TN,37932
1.10E+11,36.03556,-83.83953,KNOXVILLE,KNOX COUNTY,TN,37924
1.10E+11,35.98249,-83.93617,KNOXVILLE,KNOX COUNTY,TN,37917
1.10E+11,35.94707,-83.83211,KNOXVILLE,KNOX COUNTY,TN,37914
1.10E+11,35.96734,-84.12816,KNOXVILLE,KNOX COUNTY,TN,37931
1.10E+11,35.956755,-83.82636,KNOXVILLE,KNOX COUNTY,TN,37914
1.10E+11,35.960973,-84.135413,KNOXVILLE,KNOX COUNTY,TN,37931
1.10E+11,36.364019,-89.489039,TIPTONVILLE,LAKE,TN,38079
1.10E+11,35.88682,-89.40319,HALLS,LAUDERDALE,TN,38040
1.10E+11,35.76516,-89.54639,RIPLEY,LAUDERDALE,TN,38063
1.10E+11,35.72008,-89.55435,RIPLEY,LAUDERDALE,TN,38063
1.10E+11,35.71732,-89.54976,RIPLEY,LAUDERDALE,TN,38063
1.10E+11,35.720925,-89.556059,RIPLEY,LAUDERDALE,TN,38063
1.10E+11,35.76949,-89.51879,RIPLEY,LAUDERDALE,TN,38063
1.10E+11,35.777573,-89.517369,RIPLEY,LAUDERDALE,TN,38063 9442
1.10E+11,35.76627,-89.53996,RIPLEY,LAUDERDALE,TN,38063
1.10E+11,35.72053,-89.55055,RIPLEY,LAUDERDALE,TN,38063
1.10E+11,35.77326,-89.52114,RIPLEY,LAUDERDALE COUNTY,TN,38063
1.10E+11,35.886628,-89.403205,HALLS,LAUDERDALE COUNTY,TN,38040
1.10E+11,35.7789,-89.5125,RIPLEY,LAUDERDALE COUNTY,TN,38063
1.10E+11,35.25994,-87.37292,LAWRENCEBURG,LAWRENCE,TN,38464
1.10E+11,35.261003,-87.332988,LAWRENCEBURG,LAWRENCE,TN,38464
1.10E+11,35.27946,-87.32909,LAWRENCEBURG,LAWRENCE,TN,38464
1.10E+11,35.0831,-87.43216,LORETTO,LAWRENCE,TN,38469
1.10E+11,35.26838,-87.3341,LAWRENCEBURG,LAWRENCE,TN,38464
1.10E+11,35.2681,-87.33414,LAWRENCEBURG,LAWRENCE COUNTY,TN,38464
1.10E+11,35.26645,-87.32941,LAWRENCEBURG,LAWRENCE COUNTY,TN,38464
1.10E+11,35.26879,-87.32827,LAWRENCEBURG,LAWRENCE COUNTY,TN,38464
1.10E+11,35.268888,-87.323759,LAWRENCEBURG,LAWRENCE COUNTY,TN,38464
1.10E+11,35.1989,-87.3444,LAWRENCEBURG,LAWRENCE COUNTY,TN,38464
1.10E+11,35.550924,-87.552676,HOHENWALD,LEWIS,TN,38462
1.10E+11,35.56204,-87.53048,HOHENWALD,LEWIS COUNTY,TN,38462
1.10E+11,35.144881,-86.588783,FAYETTEVILLE,LINCOLN,TN,37334
1.10E+11,35.15447,-86.59445,FAYETTEVILLE,LINCOLN,TN,37334
1.10E+11,35.12891,-86.74229,FAYETTEVILLE,LINCOLN,TN,37334
1.10E+11,35.14553,-86.5701,FAYETTEVILLE,LINCOLN,TN,37334
1.10E+11,35.119025,-86.56905,FAYETTEVILLE,LINCOLN,TN,37334
1.10E+11,35.150018,-86.512788,FAYETTEVILLE,LINCOLN,TN,37334
1.10E+11,35.16378,-86.56447,FAYETTEVILLE,LINCOLN COUNTY,TN,37334
1.10E+11,35.14362,-86.58507,FAYETTEVILLE,LINCOLN COUNTY,TN,37334
1.10E+11,35.15791,-86.50848,FAYETTEVILLE,LINCOLN COUNTY,TN,37334
1.10E+11,35.161935,-86.516792,FAYETTEVILLE,LINCOLN COUNTY,TN,37334
1.10E+11,35.16289,-86.54327,FAYETTEVILLE,LINCOLN COUNTY,TN,37334
1.10E+11,35.778884,-84.27526,LENOIR CITY,LOUDON,TN,37771
1.10E+11,35.78754,-84.26564,LENOIR CITY,LOUDON,TN,37771
1.10E+11,35.64081,-84.15142,GREENBACK,LOUDON,TN,37742
1.10E+11,35.740166,-84.332682,LOUDON,LOUDON,TN,37774
1.10E+11,35.742609,-84.33536,LOUDON,LOUDON,TN,37774
1.10E+11,35.673889,-84.083333,GREENBACK,LOUDON,TN,37742
1.10E+11,35.758008,-84.389631,LOUDON,LOUDON,TN,37774
1.10E+11,35.792358,-84.26119,LENOIR CITY,LOUDON,TN,37771
1.10E+11,35.741304,-84.324579,LOUDON,LOUDON,TN,37774
1.10E+11,35.660158,-84.169272,GREENBACK,LOUDON,TN,37742
1.10E+11,35.725052,-84.357548,LOUDON,LOUDON,TN,37774
1.10E+11,35.77167,-84.33065,LOUDON,LOUDON COUNTY,TN,37774
1.10E+11,35.76196,-84.32824,LOUDON,LOUDON COUNTY,TN,37774
1.10E+11,35.740588,-84.310083,LOUDON,LOUDON COUNTY,TN,37774
1.10E+11,35.734503,-84.32137,LOUDON,LOUDON COUNTY,TN,37774
1.10E+11,35.742,-84.326194,LOUDON,LOUDON COUNTY,TN,37774
1.10E+11,35.728204,-84.367241,LOUDON,LOUDON COUNTY,TN,37774
1.10E+11,35.779047,-84.274773,LENOIR CITY,LOUDON COUNTY,TN,37771
1.10E+11,35.70989,-84.19922,GREENBACK,LOUDON COUNTY,TN,37772
1.10E+11,35.757923,-84.389706,LOUDON,LOUDON COUNTY,TN,37774
1.10E+11,35.778869,-84.275316,LENOIR CITY,LOUDON COUNTY,TN,37771
1.10E+11,35.72785,-84.35511,LOUDON,LOUDON COUNTY,TN,37774
1.10E+11,35.652293,-84.152835,GREENBACK,LOUDON COUNTY,TN,37742
1.10E+11,36.53771,-86.02095,LAFAYETTE,MACON,TN,37083
1.10E+11,36.53578,-86.02133,LAFAYETTE,MACON,TN,37083
1.10E+11,36.52893,-86.056401,LAFAYETTE,MACON COUNTY,TN,37083
1.10E+11,36.53939,-86.0136,LAFAYETTE,MACON COUNTY,TN,37083
1.10E+11,35.60588,-88.79678,JACKSON,MADISON,TN,38301
1.10E+11,35.6259,-88.77407,JACKSON,MADISON,TN,38301
1.10E+11,35.63354,-88.9056,JACKSON,MADISON,TN,38301
1.10E+11,35.616666,-88.833098,JACKSON,MADISON,TN,38301
1.10E+11,35.61844,-88.85763,JACKSON,MADISON,TN,38301 3202
1.10E+11,35.63188,-88.77772,JACKSON,MADISON,TN,38308
1.10E+11,35.61814,-88.89284,JACKSON,MADISON,TN,38301
1.10E+11,35.64397,-88.776334,JACKSON,MADISON,TN,38301
1.10E+11,35.645757,-88.787769,JACKSON,MADISON,TN,38301
1.10E+11,35.632052,-88.780641,JACKSON,MADISON,TN,38301
1.10E+11,35.55512,-88.81457,JACKSON,MADISON,TN,38301
1.10E+11,35.633384,-88.901181,JACKSON,MADISON,TN,38301
1.10E+11,35.632052,-88.780641,JACKSON,MADISON,TN,38301
1.10E+11,35.58054,-88.838626,JACKSON,MADISON,TN,38301
1.10E+11,35.63181,-88.7817,JACKSON,MADISON,TN,38301
1.10E+11,35.63173,-88.908,JACKSON,MADISON,TN,38301 5628
1.10E+11,35.67617,-88.76717,JACKSON,MADISON,TN,38305
1.10E+11,35.61689,-88.8929,JACKSON,MADISON COUNTY,TN,38301
1.10E+11,35.63881,-88.90274,JACKSON,MADISON COUNTY,TN,38301
1.10E+11,35.61108,-88.91298,JACKSON,MADISON COUNTY,TN,38301
1.10E+11,35.62598,-88.77765,JACKSON,MADISON COUNTY,TN,38301
1.10E+11,35.60207,-88.92561,JACKSON,MADISON COUNTY,TN,38301
1.10E+11,35.637222,-88.782222,JACKSON,MADISON COUNTY,TN,38301
1.10E+11,35.63299,-88.89515,JACKSON,MADISON COUNTY,TN,38301
1.10E+11,35.63379,-88.91192,JACKSON,MADISON COUNTY,TN,38301
1.10E+11,35.74166,-88.8625,JACKSON,MADISON COUNTY,TN,38305
1.10E+11,35.67601,-88.75997,JACKSON,MADISON COUNTY,TN,38305
1.10E+11,35.62337,-88.81134,JACKSON,MADISON COUNTY,TN,38301
1.10E+11,35.66413,-88.78147,JACKSON,MADISON COUNTY,TN,38305
1.10E+11,35.72409,-88.81766,JACKSON,MADISON COUNTY,TN,38305
1.10E+11,35.63864,-88.89733,JACKSON,MADISON COUNTY,TN,38301
1.10E+11,35.62783,-88.78625,JACKSON,MADISON COUNTY,TN,38301
1.10E+11,35.59619,-88.94178,JACKSON,MADISON COUNTY,TN,38301
1.10E+11,35.596221,-88.943062,JACKSON,MADISON COUNTY,TN,38301
1.10E+11,35.66739,-88.77927,JACKSON,MADISON COUNTY,TN,38305
1.10E+11,35.623501,-88.839519,JACKSON,MADISON COUNTY,TN,38301
1.10E+11,35.724105,-88.817433,JACKSON,MADISON COUNTY,TN,38305
1.10E+11,35.643528,-88.795051,JACKSON,MADISON COUNTY,TN,38301
1.10E+11,35.67616,-88.76741,JACKSON,MADISON COUNTY,TN,38305
1.10E+11,35.64397,-88.776334,JACKSON,MADISON COUNTY,TN,38305
1.10E+11,35.635035,-88.781242,JACKSON,MADISON COUNTY,TN,38301
1.10E+11,35.065356,-85.620036,JASPER,MARION,TN,37347
1.10E+11,35.061464,-85.410239,CHATTANOOGA,MARION,TN,37419
1.10E+11,35.00076,-85.62155,SOUTH PITTSBURG,MARION,TN,37380
1.10E+11,35.04839,-85.63804,JASPER,MARION COUNTY,TN,37347
1.10E+11,35.05071,-85.63522,JASPER,MARION COUNTY,TN,37347
1.10E+11,35.05495,-85.63231,JASPER,MARION COUNTY,TN,37347
1.10E+11,35.00752,-85.70643,SOUTH PITTSBURG,MARION COUNTY,TN,37380
1.10E+11,35.001,-85.71103,SOUTH PITTSBURG,MARION COUNTY,TN,37380
1.10E+11,35.01215,-85.70121,SOUTH PITTSBURG,MARION COUNTY,TN,37380 1516
1.10E+11,35.04647,-85.6441,JASPER,MARION COUNTY,TN,37347
1.10E+11,35.05444,-85.63588,JASPER,MARION COUNTY,TN,37347
1.10E+11,34.99768,-85.64361,SOUTH PITTSBURG,MARION COUNTY,TN,37380
1.10E+11,35.42631,-86.75843,LEWISBURG,MARSHALL,TN,37091
1.10E+11,35.461184,-86.8,LEWISBURG,MARSHALL,TN,37091
1.10E+11,35.436047,-86.767042,LEWISBURG,MARSHALL,TN,37091
1.10E+11,35.43111,-86.76271,LEWISBURG,MARSHALL,TN,37091
1.10E+11,35.43376,-86.7649,LEWISBURG,MARSHALL,TN,37091
1.10E+11,35.501257,-86.800556,LEWISBURG,MARSHALL,TN,37091
1.10E+11,35.43158,-86.75306,LEWISBURG,MARSHALL,TN,37091
1.10E+11,35.43787,-86.77169,LEWISBURG,MARSHALL,TN,37091
1.10E+11,35.44306,-86.78099,LEWISBURG,MARSHALL,TN,37091
1.10E+11,35.43048,-86.7583,LEWISBURG,MARSHALL,TN,37091
1.10E+11,35.465966,-86.790982,LEWISBURG,MARSHALL,TN,37091 0309
1.10E+11,35.43087,-86.7462,LEWISBURG,MARSHALL COUNTY,TN,37091
1.10E+11,35.43077,-86.75694,LEWISBURG,MARSHALL COUNTY,TN,37091
1.10E+11,35.43861,-86.75689,LEWISBURG,MARSHALL COUNTY,TN,37091
1.10E+11,35.42755,-86.76162,LEWISBURG,MARSHALL COUNTY,TN,37091
1.10E+11,35.43678,-86.76929,LEWISBURG,MARSHALL COUNTY,TN,37091
1.10E+11,35.42915,-86.7625,LEWISBURG,MARSHALL COUNTY,TN,37091
1.10E+11,35.43009,-86.76262,LEWISBURG,MARSHALL COUNTY,TN,37091
1.10E+11,35.421039,-86.745247,LEWISBURG,MARSHALL COUNTY,TN,37091
1.10E+11,35.63423,-87.07169,COLUMBIA,MAURY,TN,38401
1.10E+11,35.52125,-87.2287,MOUNT PLEASANT,MAURY,TN,38474
1.10E+11,35.66229,-87.12237,COLUMBIA,MAURY,TN,38401
1.10E+11,35.59777,-87.10449,COLUMBIA,MAURY,TN,38401
1.10E+11,35.60021,-87.10607,COLUMBIA,MAURY,TN,38401
1.10E+11,35.51191,-87.18693,MOUNT PLEASANT,MAURY,TN,38474
1.10E+11,35.643972,-87.049722,COLUMBIA,MAURY,TN,38401
1.10E+11,35.63248,-87.07103,COLUMBIA,MAURY,TN,38401
1.10E+11,35.59798,-87.05924,COLUMBIA,MAURY,TN,38401
1.10E+11,35.678337,-87.015152,COLUMBIA,MAURY,TN,38401
1.10E+11,35.56869,-87.17207,"NASHVILLE, TN",MAURY,TN,38474
1.10E+11,35.67397,-87.00959,COLUMBIA,MAURY,TN,38401
1.10E+11,35.650678,-87.054173,COLUMBIA,MAURY COUNTY,TN,38401
1.10E+11,35.5249,-87.2431,MOUNT PLEASANT,MAURY COUNTY,TN,38474
1.10E+11,35.54669,-87.18462,MOUNT PLEASANT,MAURY COUNTY,TN,38474
1.10E+11,35.52743,-87.20618,MOUNT PLEASANT,MAURY COUNTY,TN,38474
1.10E+11,35.554391,-87.190884,MOUNT PLEASANT,MAURY COUNTY,TN,38474
1.10E+11,35.64279,-87.0437,COLUMBIA,MAURY COUNTY,TN,38401
1.10E+11,35.739372,-86.96301,SPRING HILL,MAURY COUNTY,TN,37174
1.10E+11,35.55894,-87.17573,MOUNT PLEASANT,MAURY COUNTY,TN,38474
1.10E+11,35.650216,-87.029114,COLUMBIA,MAURY COUNTY,TN,38401
1.10E+11,35.55822,-87.177336,MOUNT PLEASANT,MAURY COUNTY,TN,38474
1.10E+11,35.752839,-86.961554,SPRING HILL,MAURY COUNTY,TN,37174
1.10E+11,35.555105,-87.190891,MOUNT PLEASANT,MAURY COUNTY,TN,38474
1.10E+11,35.563705,-87.164885,MOUNT PLEASANT,MAURY COUNTY,TN,38474
1.10E+11,35.752844,-86.962715,SPRING HILL,MAURY COUNTY,TN,37174
1.10E+11,35.74229,-86.95269,SPRING HILL,MAURY COUNTY,TN,37174
1.10E+11,35.46741,-84.60265,ATHENS,MCMINN,TN,37303
1.10E+11,35.445278,-84.632217,ATHENS,MCMINN,TN,37303
1.10E+11,35.451531,-84.598385,ATHENS,MCMINN,TN,37303
1.10E+11,35.462466,-84.567915,ATHENS,MCMINN,TN,37303
1.10E+11,35.51996,-84.54057,NIOTA,MCMINN,TN,37826
1.10E+11,35.35217,-84.52079,ETOWAH,MCMINN,TN,37331
1.10E+11,35.440827,-84.611624,ATHENS,MCMINN,TN,37303
1.10E+11,35.441542,-84.63142,ATHENS,MCMINN,TN,37303
1.10E+11,35.47893,-84.64091,ATHENS,MCMINN,TN,37303
1.10E+11,35.472682,-84.599225,ATHENS,MCMINN,TN,37303
1.10E+11,35.585346,-84.569268,NIOTA,MCMINN,TN,37826
1.10E+11,35.51093,-84.55475,NIOTA,MCMINN,TN,37826
1.10E+11,35.442067,-84.58496,ATHENS,MCMINN,TN,37303
1.10E+11,35.48284,-84.58967,ATHENS,MCMINN,TN,37303
1.10E+11,35.452776,-84.575781,ATHENS,MCMINN COUNTY,TN,37303
1.10E+11,35.44304,-84.62955,ATHENS,MCMINN COUNTY,TN,37303
1.10E+11,35.36813,-84.520764,ETOWAH,MCMINN COUNTY,TN,37331
1.10E+11,35.45875,-84.58344,ATHENS,MCMINN COUNTY,TN,37303
1.10E+11,35.474472,-84.643992,ATHENS,MCMINN COUNTY,TN,37303
1.10E+11,35.47997,-84.587861,ATHENS,MCMINN COUNTY,TN,37303
1.10E+11,35.273951,-84.536654,ETOWAH,MCMINN COUNTY,TN,37331
1.10E+11,35.362139,-84.521919,ETOWAH,MCMINN COUNTY,TN,37331
1.10E+11,35.46451,-84.65352,ATHENS,MCMINN COUNTY,TN,37303
1.10E+11,35.4744,-84.66051,ATHENS,MCMINN COUNTY,TN,37303
1.10E+11,35.48,-84.64,ATHENS,MCMINN COUNTY,TN,37303
1.10E+11,35.2963,-84.7566,CALHOUN,MCMINN COUNTY,TN,37309
1.10E+11,35.22861,-88.60472,BETHEL SPRINGS,MCNAIRY,TN,38315
1.10E+11,35.23523,-88.37743,ADAMSVILLE,MCNAIRY,TN,38310
1.10E+11,35.2509,-88.39267,ADAMSVILLE,MCNAIRY,TN,38310
1.10E+11,35.2299,-88.3811,ADAMSVILLE,MCNAIRY,TN,38310
1.10E+11,35.14224,-88.55804,SELMER,MCNAIRY,TN,38375
1.10E+11,35.17336,-88.5898,SELMER,MCNAIRY,TN,38375
1.10E+11,35.162668,-88.608431,SELMER,MCNAIRY,TN,38375 0462
1.10E+11,35.23595,-88.37637,ADAMSVILLE,MCNAIRY,TN,38310
1.10E+11,35.15181,-88.59434,SELMER,MCNAIRY COUNTY,TN,38375
1.10E+11,35.16459,-88.59837,SELMER,MCNAIRY COUNTY,TN,38375
1.10E+11,35.19425,-88.61352,SELMER,MCNAIRY COUNTY,TN,38375
1.10E+11,35.154939,-88.597274,SELMER,MCNAIRY COUNTY,TN,38375 3276
1.10E+11,35.18083,-88.60071,SELMER,MCNAIRY COUNTY,TN,38375
1.10E+11,35.198254,-88.617683,SELMER,MCNAIRY COUNTY,TN,38375
1.10E+11,35.492281,-84.810784,DECATUR,MEIGS COUNTY,TN,37322
1.10E+11,35.489167,-84.805833,DECATUR,MEIGS COUNTY,TN,37322
1.10E+11,35.52611,-84.79194,DECATUR,MEIGS COUNTY,TN,37322
1.10E+11,35.633405,-84.733275,DECATUR,MEIGS COUNTY,TN,37322
1.10E+11,35.610983,-84.455134,SWEETWATER,MONROE,TN,37874
1.10E+11,35.60829,-84.26419,VONORE,MONROE,TN,37885
1.10E+11,35.6051,-84.25693,VONORE,MONROE,TN,37885
1.10E+11,35.610854,-84.272738,MADISONVILLE,MONROE,TN,37354
1.10E+11,35.60731,-84.453925,SWEETWATER,MONROE,TN,37874
1.10E+11,35.589315,-84.472914,SWEETWATER,MONROE,TN,37874 0386
1.10E+11,35.609157,-84.255781,VONORE,MONROE,TN,37885
1.10E+11,35.59275,-84.4682,SWEETWATER,MONROE COUNTY,TN,37874
1.10E+11,35.60583,-84.25416,VONORE,MONROE COUNTY,TN,37885
1.10E+11,35.61375,-84.26296,VONORE,MONROE COUNTY,TN,37885
1.10E+11,35.60224,-84.25606,VONORE,MONROE COUNTY,TN,37885
1.10E+11,35.5973,-84.4894,SWEETWATER,MONROE COUNTY,TN,37874
1.10E+11,35.586494,-84.474346,SWEETWATER,MONROE COUNTY,TN,37874
1.10E+11,35.605294,-84.454209,SWEETWATER,MONROE COUNTY,TN,37874
1.10E+11,35.612846,-84.261543,VONORE,MONROE COUNTY,TN,37885
1.10E+11,35.598161,-84.230406,VONORE,MONROE COUNTY,TN,37885
1.10E+11,35.609479,-84.454174,SWEETWATER,MONROE COUNTY,TN,37874
1.10E+11,35.53956,-84.521718,SWEETWATER,MONROE COUNTY,TN,37874
1.10E+11,35.60056,-84.23031,VONORE,MONROE COUNTY,TN,37885
1.10E+11,35.60062,-84.45991,SWEETWATER,MONROE COUNTY,TN,37874
1.10E+11,35.498891,-84.393629,MADISONVILLE,MONROE COUNTY,TN,37354
1.10E+11,35.610331,-84.456892,SWEETWATER,MONROE COUNTY,TN,37874
1.10E+11,35.590708,-84.483507,SWEETWATER,MONROE COUNTY,TN,37874
1.10E+11,36.5998,-87.25942,CLARKSVILLE,MONTGOMERY,TN,37040
1.10E+11,36.53295,-87.34313,CLARKSVILLE,MONTGOMERY,TN,37040
1.10E+11,36.563396,-87.42712,CLARKSVILLE,MONTGOMERY,TN,37042
1.10E+11,36.62107,-87.42235,CLARKSVILLE,MONTGOMERY,TN,37042
1.10E+11,36.626759,-87.221121,CLARKSVILLE,MONTGOMERY,TN,37040
1.10E+11,36.52846,-87.34855,CLARKSVILLE,MONTGOMERY,TN,37040
1.10E+11,36.529222,-87.538333,WOODLAWN,MONTGOMERY,TN,37191
1.10E+11,36.59146,-87.2532,CLARKSVILLE,MONTGOMERY,TN,37040
1.10E+11,36.60743,-87.25804,CLARKSVILLE,MONTGOMERY,TN,37040
1.10E+11,36.592566,-87.257074,CLARKSVILLE,MONTGOMERY COUNTY,TN,37040
1.10E+11,36.58637,-87.26939,CLARKSVILLE,MONTGOMERY COUNTY,TN,37040
1.10E+11,36.58263,-87.29697,CLARKSVILLE,MONTGOMERY COUNTY,TN,37040
1.10E+11,36.60743,-87.25804,CLARKSVILLE,MONTGOMERY COUNTY,TN,37040
1.10E+11,36.60251,-87.25891,CLARKSVILLE,MONTGOMERY COUNTY,TN,37040
1.10E+11,36.53463,-87.33977,CLARKSVILLE,MONTGOMERY COUNTY,TN,37040
1.10E+11,36.58149,-87.26512,CLARKSVILLE,MONTGOMERY COUNTY,TN,37040
1.10E+11,36.59652,-87.26,CLARKSVILLE,MONTGOMERY COUNTY,TN,37040
1.10E+11,36.5962,-87.25995,CLARKSVILLE,MONTGOMERY COUNTY,TN,37040
1.10E+11,36.59803,-87.26594,CLARKSVILLE,MONTGOMERY COUNTY,TN,37040
1.10E+11,36.622131,-87.230268,CLARKSVILLE,MONTGOMERY COUNTY,TN,37040
1.10E+11,36.585588,-87.262281,CLARKSVILLE,MONTGOMERY COUNTY,TN,37040
1.10E+11,36.518398,-87.40293,CLARKSVILLE,MONTGOMERY COUNTY,TN,37040
1.10E+11,36.638854,-87.247564,CLARKSVILLE,MONTGOMERY COUNTY,TN,37040
1.10E+11,36.575622,-87.255325,CLARKSVILLE,MONTGOMERY COUNTY,TN,37040
1.10E+11,36.61804,-87.23714,CLARKSVILLE,MONTGOMERY COUNTY,TN,37040
1.10E+11,36.58637,-87.26939,CLARKSVILLE,MONTGOMERY COUNTY,TN,37040
1.10E+11,35.285359,-86.368475,LYNCHBURG,MOORE,TN,37352
1.10E+11,35.285359,-86.368475,LYNCHBURG,MOORE COUNTY,TN,37352
1.10E+11,36.10368,-84.55035,WARTBURG,MORGAN,TN,37887
1.10E+11,36.10321,-84.57848,WARTBURG,MORGAN,TN,37887 1237
1.10E+11,36.041667,-84.438333,COALFIELD,MORGAN,TN,37719 0280
1.10E+11,36.250152,-84.662388,SUNBRIGHT,MORGAN,TN,37872
1.10E+11,36.25031,-84.66385,SUNBRIGHT,MORGAN COUNTY,TN,37872
1.10E+11,36.0954,-84.5484,WARTBURG,MORGAN COUNTY,TN,37887
1.10E+11,36.0954,-84.5484,WARTBURG,MORGAN COUNTY,TN,37887
1.10E+11,36.2085,-89.01566,KENTON,OBION,TN,38233
1.10E+11,36.41437,-89.05422,UNION CITY,OBION,TN,38261
1.10E+11,36.445224,-89.057274,UNION CITY,OBION,TN,38261
1.10E+11,36.414882,-89.062263,UNION CITY,OBION,TN,38261
1.10E+11,36.442626,-89.058463,UNION CITY,OBION,TN,38261
1.10E+11,36.44826,-89.06387,UNION CITY,OBION COUNTY,TN,38261
1.10E+11,36.44332,-89.05741,UNION CITY,OBION COUNTY,TN,38261
1.10E+11,36.419221,-89.005841,UNION CITY,OBION COUNTY,TN,38261
1.10E+11,36.39893,-88.99401,UNION CITY,OBION COUNTY,TN,38261
1.10E+11,36.485677,-88.899415,SOUTH FULTON,OBION COUNTY,TN,38257
1.10E+11,36.479257,-89.162248,UNION CITY,OBION COUNTY,TN,38261
1.10E+11,36.28305,-89.147607,RIVES,OBION COUNTY,TN,38253
1.10E+11,36.3707,-85.35872,LIVINGSTON,OVERTON,TN,38570
1.10E+11,36.35328,-85.33137,LIVINGSTON,OVERTON,TN,38570
1.10E+11,36.38209,-85.31616,LIVINGSTON,OVERTON,TN,38570
1.10E+11,36.34971,-85.33066,LIVINGSTON,OVERTON,TN,38570
1.10E+11,36.416975,-85.327926,LIVINGSTON,OVERTON,TN,38570
1.10E+11,35.609685,-87.83655,LINDEN,PERRY,TN,37096
1.10E+11,35.16944,-84.65583,BENTON,POLK,TN,37307
1.10E+11,35.004323,-84.729461,CONASAUGA,POLK,TN,37316
1.10E+11,35.218284,-84.589653,BENTON,POLK,TN,37307
1.10E+11,34.99143,-84.37546,COPPERHILL,POLK,TN,37317
1.10E+11,36.14121,-85.52433,COOKEVILLE,PUTNAM,TN,38501
1.10E+11,36.132519,-85.483077,COOKEVILLE,PUTNAM,TN,38502
1.10E+11,36.13452,-85.54141,COOKEVILLE,PUTNAM,TN,38506
1.10E+11,36.17846,-85.45987,COOKEVILLE,PUTNAM,TN,38506
1.10E+11,36.18842,-85.4752,COOKEVILLE,PUTNAM,TN,38506
1.10E+11,36.199745,-85.490663,COOKEVILLE,PUTNAM,TN,38501
1.10E+11,36.13856,-85.52301,COOKEVILLE,PUTNAM,TN,38501
1.10E+11,36.16225,-85.52259,COOKEVILLE,PUTNAM,TN,38501
1.10E+11,36.12798,-85.48366,COOKEVILLE,PUTNAM,TN,38502
1.10E+11,36.14803,-85.50085,COOKEVILLE,PUTNAM,TN,38501
1.10E+11,36.18694,-85.48232,COOKEVILLE,PUTNAM,TN,38501 0789
1.10E+11,36.130095,-85.535607,COOKEVILLE,PUTNAM,TN,38501
1.10E+11,36.12295,-85.48188,COOKEVILLE,PUTNAM,TN,38506
1.10E+11,36.17018,-85.54457,COOKEVILLE,PUTNAM,TN,38501
1.10E+11,36.12538,-85.47523,COOKEVILLE,PUTNAM,TN,38502
1.10E+11,36.126398,-85.247203,MONTEREY,PUTNAM,TN,38574
1.10E+11,36.139507,-85.53369,COOKEVILLE,PUTNAM COUNTY,TN,38501
1.10E+11,36.1194,-85.2492,MONTEREY,PUTNAM COUNTY,TN,38574
1.10E+11,36.15474,-85.50434,COOKEVILLE,PUTNAM COUNTY,TN,38506
1.10E+11,35.51176,-85.00766,DAYTON,RHEA,TN,37321
1.10E+11,35.526959,-84.968371,DAYTON,RHEA,TN,37321
1.10E+11,35.50217,-85.01164,DAYTON,RHEA,TN,37321
1.10E+11,35.5063,-85.00959,DAYTON,RHEA,TN,37321
1.10E+11,35.52435,-85.0006,DAYTON,RHEA,TN,37321
1.10E+11,35.52018,-85.00295,DAYTON,RHEA COUNTY,TN,37321
1.10E+11,35.7436,-84.80307,SPRING CITY,RHEA COUNTY,TN,37381
1.10E+11,35.593991,-84.78576,SPRING CITY,RHEA COUNTY,TN,37381
1.10E+11,35.53055,-84.99212,DAYTON,RHEA COUNTY,TN,37321
1.10E+11,35.70584,-84.85236,SPRING CITY,RHEA COUNTY,TN,37381
1.10E+11,35.526237,-85.000033,DAYTON,RHEA COUNTY,TN,37321
1.10E+11,35.53627,-84.97871,DAYTON,RHEA COUNTY,TN,37321
1.10E+11,35.531235,-84.991887,DAYTON,RHEA COUNTY,TN,37321
1.10E+11,35.88999,-84.65444,ROCKWOOD,ROANE,TN,37854
1.10E+11,35.89214,-84.64721,ROCKWOOD,ROANE,TN,37854
1.10E+11,35.89432,-84.6384,ROCKWOOD,ROANE,TN,37854
1.10E+11,35.87577,-84.43743,KINGSTON,ROANE COUNTY,TN,37763
1.10E+11,35.898367,-84.518681,HARRIMAN,ROANE COUNTY,TN,37748
1.10E+11,35.8872,-84.65481,ROCKWOOD,ROANE COUNTY,TN,37854
1.10E+11,35.86959,-84.69576,ROCKWOOD,ROANE COUNTY,TN,37854
1.10E+11,35.924714,-84.390128,OAK RIDGE,ROANE COUNTY,TN,37830
1.10E+11,35.924714,-84.390128,OAK RIDGE,ROANE COUNTY,TN,37830
1.10E+11,35.933333,-84.396667,OAK RIDGE,ROANE COUNTY,TN,37830
1.10E+11,35.933333,-84.396667,OAK RIDGE,ROANE COUNTY,TN,37830
1.10E+11,35.894838,-84.617159,HARRIMAN,ROANE COUNTY,TN,37748
1.10E+11,35.93111,-84.38749,OAK RIDGE,ROANE COUNTY,TN,37830
1.10E+11,35.89744,-84.62905,ROCKWOOD,ROANE COUNTY,TN,37854
1.10E+11,35.914304,-84.380739,OAK RIDGE,ROANE COUNTY,TN,37830
1.10E+11,35.880877,-84.583228,HARRIMAN,ROANE COUNTY,TN,37748
1.10E+11,36.501547,-86.872481,SPRINGFIELD,ROBERTSON,TN,37172
1.10E+11,36.503316,-86.885933,SPRINGFIELD,ROBERTSON,TN,37172
1.10E+11,36.50191,-86.87513,SPRINGFIELD,ROBERTSON,TN,37172
1.10E+11,36.49818,-86.87806,SPRINGFIELD,ROBERTSON,TN,37172
1.10E+11,36.494722,-86.861944,SPRINGFIELD,ROBERTSON,TN,37172
1.10E+11,36.49818,-86.87806,SPRINGFIELD,ROBERTSON,TN,37172
1.10E+11,36.53939,-86.89477,SPRINGFIELD,ROBERTSON,TN,37172
1.10E+11,36.48555,-86.85874,SPRINGFIELD,ROBERTSON,TN,37172
1.10E+11,36.47755,-86.68639,WHITE HOUSE,ROBERTSON,TN,37188
1.10E+11,36.54274,-86.89426,SPRINGFIELD,ROBERTSON,TN,37172
1.10E+11,36.494717,-86.860381,SPRINGFIELD,ROBERTSON,TN,37172
1.10E+11,36.50252,-86.89608,SPRINGFIELD,ROBERTSON,TN,37172
1.10E+11,36.501535,-86.871516,SPRINGFIELD,ROBERTSON COUNTY,TN,37172
1.10E+11,36.4216,-86.8954,GREENBRIER,ROBERTSON COUNTY,TN,37073
1.10E+11,36.53743,-86.89518,SPRINGFIELD,ROBERTSON COUNTY,TN,37172
1.10E+11,36.63219,-86.57039,PORTLAND,ROBERTSON COUNTY,TN,37148
1.10E+11,36.49178,-86.85808,SPRINGFIELD,ROBERTSON COUNTY,TN,37172
1.10E+11,35.805714,-86.395775,MURFREESBORO,RUTHERFORD,TN,37127
1.10E+11,35.8781,-86.42623,MURFREESBORO,RUTHERFORD,TN,37129
1.10E+11,35.91748,-86.47421,MURFREESBORO,RUTHERFORD,TN,37129
1.10E+11,35.79359,-86.37846,MURFREESBORO,RUTHERFORD,TN,37127
1.10E+11,35.85422,-86.40554,MURFREESBORO,RUTHERFORD,TN,37129
1.10E+11,35.802778,-86.391667,MURFREESBORO,RUTHERFORD,TN,37133
1.10E+11,35.988169,-86.545467,SMYRNA,RUTHERFORD,TN,37167
1.10E+11,35.83088,-86.40114,MURFREESBORO,RUTHERFORD,TN,37130
1.10E+11,35.829424,-86.407623,MURFREESBORO,RUTHERFORD,TN,37129
1.10E+11,36.02116,-86.60658,LA VERGNE,RUTHERFORD,TN,37086
1.10E+11,35.99755,-86.49998,SMYRNA,RUTHERFORD,TN,37167
1.10E+11,35.83737,-86.39685,MURFREESBORO,RUTHERFORD,TN,37130
1.10E+11,36.01593,-86.58397,LA VERGNE,RUTHERFORD,TN,37086
1.10E+11,35.87699,-86.42498,MURFREESBORO,RUTHERFORD,TN,37129
1.10E+11,35.82609,-86.40515,MURFREESBORO,RUTHERFORD,TN,37133
1.10E+11,35.826122,-86.404653,MURFREESBORO,RUTHERFORD,TN,37133
1.10E+11,35.97753,-86.50846,SMYRNA,RUTHERFORD,TN,37167
1.10E+11,35.82851,-86.31541,MURFREESBORO,RUTHERFORD,TN,37127
1.10E+11,35.85043,-86.40351,MURFREESBORO,RUTHERFORD,TN,37129
1.10E+11,35.829532,-86.407461,MURFREESBORO,RUTHERFORD,TN,37130
1.10E+11,35.85311,-86.398081,MURFREESBORO,RUTHERFORD,TN,37133
1.10E+11,35.82938,-86.31541,MURFREESBORO,RUTHERFORD,TN,37127
1.10E+11,36.011971,-86.435488,SMYRNA,RUTHERFORD,TN,37167
1.10E+11,35.841765,-86.39533,MURFREESBORO,RUTHERFORD,TN,37129
1.10E+11,36.0089,-86.59461,LA VERGNE,RUTHERFORD,TN,37086
1.10E+11,35.82051,-86.59425,ROCKVALE,RUTHERFORD,TN,37153
1.10E+11,35.79665,-86.38059,MURFREESBORO,RUTHERFORD,TN,37127
1.10E+11,36.02417,-86.58595,LA VERGNE,RUTHERFORD,TN,37086
1.10E+11,36.00463,-86.5991,LA VERGNE,RUTHERFORD COUNTY,TN,37086
1.10E+11,36.005007,-86.60227,LA VERGNE,RUTHERFORD COUNTY,TN,37086
1.10E+11,35.833333,-86.413611,MURFREESBORO,RUTHERFORD COUNTY,TN,37129
1.10E+11,35.85412,-86.40646,MURFREESBORO,RUTHERFORD COUNTY,TN,37129
1.10E+11,35.9637,-86.485,SMYRNA,RUTHERFORD COUNTY,TN,37167
1.10E+11,35.827576,-86.403358,MURFREESBORO,RUTHERFORD COUNTY,TN,37129
1.10E+11,36.002233,-86.49755,SMYRNA,RUTHERFORD COUNTY,TN,37167
1.10E+11,36.00161,-86.50291,SMYRNA,RUTHERFORD COUNTY,TN,37167
1.10E+11,36.00675,-86.59305,LA VERGNE,RUTHERFORD COUNTY,TN,37086
1.10E+11,36.01,-86.49505,SMYRNA,RUTHERFORD COUNTY,TN,37167
1.10E+11,36.00421,-86.59262,LA VERGNE,RUTHERFORD COUNTY,TN,37086
1.10E+11,35.875394,-86.337751,MURFREESBORO,RUTHERFORD COUNTY,TN,37129
1.10E+11,36.010798,-86.434309,MURFREESBORO,RUTHERFORD COUNTY,TN,37129
1.10E+11,35.93331,-86.5252,SMYRNA,RUTHERFORD COUNTY,TN,37167
1.10E+11,35.81662,-86.3943,MURFREESBORO,RUTHERFORD COUNTY,TN,37130
1.10E+11,35.78364,-86.36407,MURFREESBORO,RUTHERFORD COUNTY,TN,37127
1.10E+11,36.008969,-86.507033,SMYRNA,RUTHERFORD COUNTY,TN,37167
1.10E+11,36.00399,-86.60526,LA VERGNE,RUTHERFORD COUNTY,TN,37086
1.10E+11,36.00699,-86.53362,SMYRNA,RUTHERFORD COUNTY,TN,37167
1.10E+11,35.9965,-86.58407,LA VERGNE,RUTHERFORD COUNTY,TN,37086
1.10E+11,35.93384,-86.5266,SMYRNA,RUTHERFORD COUNTY,TN,37167
1.10E+11,35.8779,-86.42626,MURFREESBORO,RUTHERFORD COUNTY,TN,37129
1.10E+11,35.99011,-86.58207,LA VERGNE,RUTHERFORD COUNTY,TN,37086
1.10E+11,35.98782,-86.5827,LA VERGNE,RUTHERFORD COUNTY,TN,37086
1.10E+11,35.9497,-86.48698,SMYRNA,RUTHERFORD COUNTY,TN,37167
1.10E+11,35.95785,-86.47038,SMYRNA,RUTHERFORD COUNTY,TN,37167
1.10E+11,35.99401,-86.60369,LA VERGNE,RUTHERFORD COUNTY,TN,37086
1.10E+11,35.78657,-86.36705,MURFREESBORO,RUTHERFORD COUNTY,TN,37127
1.10E+11,35.948191,-86.485585,SMYRNA,RUTHERFORD COUNTY,TN,37167
1.10E+11,35.875408,-86.336477,MURFREESBORO,RUTHERFORD COUNTY,TN,37130
1.10E+11,36.01744,-86.583237,LA VERGNE,RUTHERFORD COUNTY,TN,37086
1.10E+11,35.960351,-86.489212,SMYRNA,RUTHERFORD COUNTY,TN,37167
1.10E+11,36.485712,-84.517378,ONEIDA,SCOTT,TN,37841
1.10E+11,36.500978,-84.5271,ONEIDA,SCOTT,TN,37841
1.10E+11,36.476671,-84.681623,ONEIDA,SCOTT,TN,37841
1.10E+11,36.507856,-84.522995,ONEIDA,SCOTT COUNTY,TN,37841
1.10E+11,36.49626,-84.51174,ONEIDA,SCOTT COUNTY,TN,37841
1.10E+11,36.348858,-84.420072,HUNTSVILLE,SCOTT COUNTY,TN,37756
1.10E+11,36.497316,-84.511947,ONEIDA,SCOTT COUNTY,TN,37841
1.10E+11,36.482947,-84.534569,ONEIDA,SCOTT COUNTY,TN,37841
1.10E+11,35.389303,-85.378265,DUNLAP,SEQUATCHIE,TN,37327
1.10E+11,35.40282,-85.37471,DUNLAP,SEQUATCHIE,TN,37327
1.10E+11,35.39237,-85.38679,DUNLAP,SEQUATCHIE,TN,37327
1.10E+11,35.87115,-83.59534,SEVIERVILLE,SEVIER,TN,37862
1.10E+11,35.88111,-83.58092,SEVIERVILLE,SEVIER,TN,37862
1.10E+11,35.85511,-83.53848,SEVIERVILLE,SEVIER,TN,37864 8002
1.10E+11,35.87433,-83.54209,SEVIERVILLE,SEVIER,TN,37862
1.10E+11,35.86946,-83.53969,SEVIERVILLE,SEVIER,TN,37864 4628
1.10E+11,35.688255,-83.537255,GATLINBURG,SEVIER,TN,37738
1.10E+11,35.962102,-83.541346,DANDRIDGE,SEVIER,TN,37725
1.10E+11,35.951437,-83.58709,KODAK,SEVIER,TN,37764
1.10E+11,35.85887,-83.52648,SEVIERVILLE,SEVIER COUNTY,TN,37862
1.10E+11,35.86725,-83.49858,SEVIERVILLE,SEVIER COUNTY,TN,37876
1.10E+11,35.88376,-83.58265,SEVIERVILLE,SEVIER COUNTY,TN,37862
1.10E+11,35.98851,-83.59491,KODAK,SEVIER COUNTY,TN,37764
1.10E+11,35.992958,-83.611083,KODAK,SEVIER COUNTY,TN,37764
1.10E+11,35.28735,-89.68105,ARLINGTON,SHELBY,TN,38002
1.10E+11,35.28193,-89.67513,ARLINGTON,SHELBY,TN,38002
1.10E+11,35.288975,-89.677317,ARLINGTON,SHELBY,TN,38002
1.10E+11,35.039894,-89.689081,COLLIERVILLE,SHELBY,TN,38017
1.10E+11,35.04243,-89.6545,COLLIERVILLE,SHELBY,TN,38027
1.10E+11,35.278902,-89.942613,MILLINGTON,SHELBY,TN,38053
1.10E+11,35.120875,-90.017315,MEMPHIS,SHELBY,TN,38104
1.10E+11,35.1124,-90.01963,MEMPHIS,SHELBY,TN,38106
1.10E+11,35.16452,-89.95909,MEMPHIS,SHELBY,TN,38108
1.10E+11,35.11169,-90.07453,MEMPHIS,SHELBY,TN,38109
1.10E+11,35.0749,-90.08422,MEMPHIS,SHELBY,TN,38109
1.10E+11,35.06292,-90.05143,MEMPHIS,SHELBY,TN,38109
1.10E+11,35.086813,-90.071444,MEMPHIS,SHELBY,TN,38109
1.10E+11,35.07408,-90.08265,MEMPHIS,SHELBY,TN,38109
1.10E+11,35.11862,-89.97606,MEMPHIS,SHELBY,TN,38111
1.10E+11,35.089366,-90.116685,MEMPHIS,SHELBY,TN,38113
1.10E+11,35.1063,-90.09785,MEMPHIS,SHELBY,TN,38113
1.10E+11,35.10764,-90.09225,MEMPHIS,SHELBY,TN,38113
1.10E+11,35.0959,-90.10405,MEMPHIS,SHELBY,TN,38113
1.10E+11,35.0313,-89.8822,MEMPHIS,SHELBY,TN,38141
1.10E+11,35.06406,-90.00918,MEMPHIS,SHELBY,TN,38116
1.10E+11,35.030578,-89.905031,MEMPHIS,SHELBY,TN,38118
1.10E+11,35.04929,-89.93717,MEMPHIS,SHELBY,TN,38118
1.10E+11,35.00043,-89.87616,MEMPHIS,SHELBY,TN,38118
1.10E+11,35.027092,-89.927622,MEMPHIS,SHELBY,TN,38118
1.10E+11,35.042,-89.90165,MEMPHIS,SHELBY,TN,38118
1.10E+11,35.13611,-90.03815,MEMPHIS,SHELBY,TN,38126
1.10E+11,35.17364,-89.88134,MEMPHIS,SHELBY,TN,38134
1.10E+11,35.00638,-90.03646,MEMPHIS,SHELBY,TN,38116
1.10E+11,35.16202,-89.95845,MEMPHIS,SHELBY,TN,38151 0001
1.10E+11,35.082191,-90.055521,MEMPHIS,SHELBY,TN,38107
1.10E+11,35.18207,-90.03035,MEMPHIS,SHELBY,TN,38107
1.10E+11,35.18318,-90.03552,MEMPHIS,SHELBY,TN,38107
1.10E+11,35.14094,-90.04098,MEMPHIS,SHELBY,TN,38103
1.10E+11,35.08854,-89.97964,MEMPHIS,SHELBY,TN,38114
1.10E+11,35.10715,-90.09426,MEMPHIS,SHELBY,TN,38113
1.10E+11,35.16514,-89.96252,MEMPHIS,SHELBY,TN,38151
1.10E+11,35.04883,-89.92856,MEMPHIS,SHELBY,TN,38118
1.10E+11,35.28995,-89.6737,ARLINGTON,SHELBY,TN,38002
1.10E+11,35.09874,-90.10551,MEMPHIS,SHELBY,TN,38113
1.10E+11,35.205838,-89.814575,BARTLETT,SHELBY,TN,38133
1.10E+11,35.09199,-90.05206,MEMPHIS,SHELBY,TN,38109
1.10E+11,35.09981,-90.10377,MEMPHIS,SHELBY,TN,38113
1.10E+11,35.16357,-90.04726,MEMPHIS,SHELBY,TN,38107
1.10E+11,35.08402,-90.05449,MEMPHIS,SHELBY,TN,38109
1.10E+11,35.09942,-89.98758,MEMPHIS,SHELBY,TN,38114
1.10E+11,35.17179,-89.88788,MEMPHIS,SHELBY,TN,38107 1092
1.10E+11,35.18367,-90.04412,MEMPHIS,SHELBY,TN,38107 0066
1.10E+11,35.0978,-89.98767,MEMPHIS,SHELBY,TN,38114
1.10E+11,35.12605,-90.05103,MEMPHIS,SHELBY,TN,38126
1.10E+11,35.10718,-90.09413,MEMPHIS,SHELBY,TN,38113
1.10E+11,35.11093,-90.06907,MEMPHIS,SHELBY,TN,38106
1.10E+11,35.17327,-89.94759,MEMPHIS,SHELBY,TN,38108
1.10E+11,35.10246,-90.10511,MEMPHIS,SHELBY,TN,38113
1.10E+11,35.11697,-90.06567,MEMPHIS,SHELBY,TN,38106
1.10E+11,35.12578,-90.06125,MEMPHIS,SHELBY,TN,38106
1.10E+11,35.08274,-90.1291,MEMPHIS,SHELBY,TN,38113
1.10E+11,35.17346,-89.99054,MEMPHIS,SHELBY,TN,38108
1.10E+11,35.04791,-89.92155,MEMPHIS,SHELBY,TN,38118
1.10E+11,35.28503,-89.96693,MILLINGTON,SHELBY,TN,38053
1.10E+11,35.137675,-90.034857,MEMPHIS,SHELBY,TN,38103
1.10E+11,35.11265,-90.06708,MEMPHIS,SHELBY,TN,38106 2699
1.10E+11,35.12242,-90.05502,MEMPHIS,SHELBY,TN,38106
1.10E+11,35.08396,-90.05204,MEMPHIS,SHELBY,TN,38106
1.10E+11,35.173442,-90.016463,MEMPHIS,SHELBY,TN,38107
1.10E+11,35.1744,-90.02204,MEMPHIS,SHELBY,TN,38107
1.10E+11,35.09201,-90.05206,MEMPHIS,SHELBY,TN,38109
1.10E+11,35.06292,-90.05135,MEMPHIS,SHELBY,TN,38109
1.10E+11,35.15388,-89.96822,MEMPHIS,SHELBY,TN,38112
1.10E+11,35.09689,-90.11188,MEMPHIS,SHELBY,TN,38113
1.10E+11,35.08936,-90.1126,MEMPHIS,SHELBY,TN,38113
1.10E+11,35.0856,-90.13932,MEMPHIS,SHELBY,TN,38113 0000
1.10E+11,35.099748,-89.989271,MEMPHIS,SHELBY,TN,38114
1.10E+11,35.08859,-89.98777,MEMPHIS,SHELBY,TN,38114
1.10E+11,35.12337,-90.00638,MEMPHIS,SHELBY,TN,38114
1.10E+11,35.09538,-89.98378,MEMPHIS,SHELBY,TN,38114
1.10E+11,35.0573,-90.00559,MEMPHIS,SHELBY,TN,38116
1.10E+11,35.04487,-89.90169,MEMPHIS,SHELBY,TN,38118
1.10E+11,35.0218,-89.89948,MEMPHIS,SHELBY,TN,38118
1.10E+11,35.042536,-89.93708,MEMPHIS,SHELBY,TN,38118
1.10E+11,35.00293,-89.87919,MEMPHIS,SHELBY,TN,38118
1.10E+11,35.040171,-89.963935,MEMPHIS,SHELBY,TN,38118
1.10E+11,35.18405,-90.03547,MEMPHIS,SHELBY,TN,38107
1.10E+11,35.04818,-89.78413,MEMPHIS,SHELBY,TN,38138
1.10E+11,35.15129,-89.96924,MEMPHIS,SHELBY,TN,38182 0305
1.10E+11,35.20982,-89.64513,EADS,SHELBY,TN,38028 0126
1.10E+11,35.08686,-90.11421,MEMPHIS,SHELBY,TN,38113
1.10E+11,35.116778,-90.07509,MEMPHIS,SHELBY,TN,38106
1.10E+11,35.17197,-89.99556,MEMPHIS,SHELBY,TN,38108
1.10E+11,35.12225,-90.06459,MEMPHIS,SHELBY,TN,38106
1.10E+11,35.2825,-89.96783,MILLINGTON,SHELBY,TN,38053
1.10E+11,35.28246,-89.67549,ARLINGTON,SHELBY,TN,38002
1.10E+11,35.10318,-90.0974,MEMPHIS,SHELBY,TN,38113
1.10E+11,35.37968,-89.80247,MILLINGTON,SHELBY,TN,38053
1.10E+11,35.13141,-90.03372,MEMPHIS,SHELBY,TN,38126
1.10E+11,35.09999,-90.06267,MEMPHIS,SHELBY,TN,38109
1.10E+11,35.04683,-89.93126,MEMPHIS,SHELBY,TN,38118
1.10E+11,35.04031,-89.64856,COLLIERVILLE,SHELBY,TN,38017
1.10E+11,35.151376,-89.96696,MEMPHIS,SHELBY,TN,38112
1.10E+11,35.02065,-89.91011,MEMPHIS,SHELBY,TN,38118
1.10E+11,34.996328,-89.919006,MEMPHIS,SHELBY,TN,38118
1.10E+11,35.165278,-89.965278,MEMPHIS,SHELBY,TN,38108
1.10E+11,35.03792,-89.6606,COLLIERVILLE,SHELBY,TN,38017
1.10E+11,35.162033,-89.750586,CORDOVA,SHELBY,TN,38018
1.10E+11,35.17847,-89.9634,MEMPHIS,SHELBY,TN,38108
1.10E+11,34.999602,-90.046712,MEMPHIS,SHELBY,TN,38115
1.10E+11,35.036457,-89.901624,MEMPHIS,SHELBY,TN,38118
1.10E+11,35.182945,-90.035532,MEMPHIS,SHELBY,TN,38107
1.10E+11,35.025471,-89.899478,MEMPHIS,SHELBY,TN,38118
1.10E+11,35.14386,-89.80251,MEMPHIS,SHELBY,TN,38134
1.10E+11,35.28739,-89.68096,ARLINGTON,SHELBY,TN,38002
1.10E+11,35.03733,-89.87021,MEMPHIS,SHELBY,TN,38115
1.10E+11,35.20786,-89.6908,ARLINGTON,SHELBY,TN,38002
1.10E+11,35.27213,-89.97894,MEMPHIS,SHELBY,TN,38127
1.10E+11,35.28024,-89.66842,ARLINGTON,SHELBY COUNTY,TN,38002
1.10E+11,35.043331,-89.690411,COLLIERVILLE,SHELBY COUNTY,TN,38017
1.10E+11,35.27374,-89.9502,MILLINGTON,SHELBY COUNTY,TN,38053
1.10E+11,35.2735,-89.94792,MILLINGTON,SHELBY COUNTY,TN,38053
1.10E+11,35.120427,-90.077782,MEMPHIS,SHELBY COUNTY,TN,38106
1.10E+11,35.17954,-90.03148,MEMPHIS,SHELBY COUNTY,TN,38107
1.10E+11,35.171,-89.99559,MEMPHIS,SHELBY COUNTY,TN,38108
1.10E+11,35.175896,-89.968059,MEMPHIS,SHELBY COUNTY,TN,38108
1.10E+11,35.16677,-89.95893,MEMPHIS,SHELBY COUNTY,TN,38108
1.10E+11,35.04991,-90.15314,MEMPHIS,SHELBY COUNTY,TN,38109
1.10E+11,35.063416,-90.077992,MEMPHIS,SHELBY COUNTY,TN,38109
1.10E+11,35.08477,-90.06772,MEMPHIS,SHELBY COUNTY,TN,38109
1.10E+11,35.075785,-90.086,MEMPHIS,SHELBY COUNTY,TN,38109
1.10E+11,35.070161,-90.067166,MEMPHIS,SHELBY COUNTY,TN,38109
1.10E+11,35.085843,-90.083385,MEMPHIS,SHELBY COUNTY,TN,38109
1.10E+11,35.08635,-90.04931,MEMPHIS,SHELBY COUNTY,TN,38109
1.10E+11,35.08195,-90.06308,MEMPHIS,SHELBY COUNTY,TN,38109
1.10E+11,35.09048,-90.11189,MEMPHIS,SHELBY COUNTY,TN,38113
1.10E+11,35.082972,-90.137389,MEMPHIS,SHELBY COUNTY,TN,38113
1.10E+11,35.1018,-90.10618,MEMPHIS,SHELBY COUNTY,TN,38113
1.10E+11,35.08598,-90.13013,MEMPHIS,SHELBY COUNTY,TN,38113
1.10E+11,35.088444,-90.110682,MEMPHIS,SHELBY COUNTY,TN,38109
1.10E+11,35.10094,-90.101347,MEMPHIS,SHELBY COUNTY,TN,38109
1.10E+11,35.04178,-89.93123,MEMPHIS,SHELBY COUNTY,TN,38118
1.10E+11,35.04375,-89.93711,MEMPHIS,SHELBY COUNTY,TN,38118
1.10E+11,35.0416,-89.90785,MEMPHIS,SHELBY COUNTY,TN,38118
1.10E+11,35.0324,-89.8989,MEMPHIS,SHELBY COUNTY,TN,38118
1.10E+11,35.12804,-90.05299,MEMPHIS,SHELBY COUNTY,TN,38126
1.10E+11,35.2716,-89.97407,MEMPHIS,SHELBY COUNTY,TN,38127
1.10E+11,35.27213,-89.97894,MEMPHIS,SHELBY COUNTY,TN,38127
1.10E+11,35.03542,-89.90535,MEMPHIS,SHELBY COUNTY,TN,38118
1.10E+11,35.081763,-90.13394,MEMPHIS,SHELBY COUNTY,TN,38113
1.10E+11,35.08596,-90.13391,MEMPHIS,SHELBY COUNTY,TN,38113
1.10E+11,35.0559,-90.0558,MEMPHIS,SHELBY COUNTY,TN,38109
1.10E+11,35.2733,-89.94577,MILLINGTON,SHELBY COUNTY,TN,38053
1.10E+11,35.27508,-89.94314,MILLINGTON,SHELBY COUNTY,TN,38053
1.10E+11,35.08447,-90.11806,MEMPHIS,SHELBY COUNTY,TN,38113
1.10E+11,35.041293,-89.913201,MEMPHIS,SHELBY COUNTY,TN,38118
1.10E+11,35.0062,-89.87703,MEMPHIS,SHELBY COUNTY,TN,38118
1.10E+11,35.15405,-89.9701,MEMPHIS,SHELBY COUNTY,TN,38112
1.10E+11,35.09173,-90.1111,MEMPHIS,SHELBY COUNTY,TN,38113
1.10E+11,35.030045,-89.89849,MEMPHIS,SHELBY COUNTY,TN,38118
1.10E+11,35.084088,-90.116254,MEMPHIS,SHELBY COUNTY,TN,38109
1.10E+11,35.1696,-89.98885,MEMPHIS,SHELBY COUNTY,TN,38108
1.10E+11,35.03769,-89.9341,MEMPHIS,SHELBY COUNTY,TN,38118
1.10E+11,35.13695,-89.993,MEMPHIS,SHELBY COUNTY,TN,38104
1.10E+11,35.06132,-90.01574,MEMPHIS,SHELBY COUNTY,TN,38116
1.10E+11,35.05484,-90.0439,MEMPHIS,SHELBY COUNTY,TN,38116
1.10E+11,35.10477,-90.09094,MEMPHIS,SHELBY COUNTY,TN,38113
1.10E+11,35.173611,-89.948889,MEMPHIS,SHELBY COUNTY,TN,38108
1.10E+11,35.158444,-89.966754,MEMPHIS,SHELBY COUNTY,TN,38112
1.10E+11,35.12213,-90.05595,MEMPHIS,SHELBY COUNTY,TN,38106
1.10E+11,35.036132,-89.88458,MEMPHIS,SHELBY COUNTY,TN,38115
1.10E+11,35.04366,-89.92188,MEMPHIS,SHELBY COUNTY,TN,38118
1.10E+11,35.04366,-89.92188,MEMPHIS,SHELBY COUNTY,TN,38118
1.10E+11,35.10106,-90.1074,MEMPHIS,SHELBY COUNTY,TN,38113
1.10E+11,35.16157,-89.75166,CORDOVA,SHELBY COUNTY,TN,38018
1.10E+11,35.0672,-90.00895,MEMPHIS,SHELBY COUNTY,TN,38116
1.10E+11,35.0672,-90.00895,MEMPHIS,SHELBY COUNTY,TN,38116
1.10E+11,35.162167,-89.923344,CORDOVA,SHELBY COUNTY,TN,38016
1.10E+11,35.02324,-89.87502,MEMPHIS,SHELBY COUNTY,TN,38141
1.10E+11,35.08321,-90.12282,MEMPHIS,SHELBY COUNTY,TN,38113
1.10E+11,35.2875,-89.68067,ARLINGTON,SHELBY COUNTY,TN,38002
1.10E+11,35.02037,-89.86956,MEMPHIS,SHELBY COUNTY,TN,38141
1.10E+11,35.081297,-90.125369,MEMPHIS,SHELBY COUNTY,TN,38109
1.10E+11,35.10629,-90.09787,MEMPHIS,SHELBY COUNTY,TN,38109
1.10E+11,35.171667,-89.9956,MEMPHIS,SHELBY COUNTY,TN,38108
1.10E+11,35.08591,-90.12383,MEMPHIS,SHELBY COUNTY,TN,38109
1.10E+11,35.15552,-89.86416,MEMPHIS,SHELBY COUNTY,TN,38134
1.10E+11,34.995116,-89.872499,MEMPHIS,SHELBY COUNTY,TN,38118
1.10E+11,35.083103,-90.126397,MEMPHIS,SHELBY COUNTY,TN,38109
1.10E+11,35.034859,-89.904526,MEMPHIS,SHELBY COUNTY,TN,38118
1.10E+11,35.08368,-90.04458,MEMPHIS,SHELBY COUNTY,TN,38106
1.10E+11,35.04991,-90.15314,MEMPHIS,SHELBY COUNTY,TN,38109
1.10E+11,35.00944,-89.85771,MEMPHIS,SHELBY COUNTY,TN,38141
1.10E+11,35.06074,-90.154989,MEMPHIS,SHELBY COUNTY,TN,38109
1.10E+11,35.10453,-89.98824,MEMPHIS,SHELBY COUNTY,TN,38114
1.10E+11,35.08683,-90.07365,MEMPHIS,SHELBY COUNTY,TN,38109
1.10E+11,35.10285,-90.09868,MEMPHIS,SHELBY COUNTY,TN,38113
1.10E+11,35.17731,-90.051306,MEMPHIS,SHELBY COUNTY,TN,38103
1.10E+11,35.274133,-89.953616,MILLINGTON,SHELBY COUNTY,TN,38053
1.10E+11,35.108515,-90.072406,MEMPHIS,SHELBY COUNTY,TN,38109
1.10E+11,35.08476,-90.12819,MEMPHIS,SHELBY COUNTY,TN,38106 1412
1.10E+11,35.062593,-90.02839,MEMPHIS,SHELBY COUNTY,TN,38116
1.10E+11,35.038611,-89.932222,MEMPHIS,SHELBY COUNTY,TN,38118
1.10E+11,35.27213,-89.97896,MEMPHIS,SHELBY COUNTY,TN,38127
1.10E+11,35.08936,-90.1126,MEMPHIS,SHELBY COUNTY,TN,38109
1.10E+11,35.008869,-89.889087,MEMPHIS,SHELBY COUNTY,TN,38118
1.10E+11,35.08205,-90.03704,MEMPHIS,SHELBY COUNTY,TN,38106
1.10E+11,35.1087,-90.07571,MEMPHIS,SHELBY COUNTY,TN,38109
1.10E+11,35.271977,-89.977443,MEMPHIS,SHELBY COUNTY,TN,38127
1.10E+11,35.33787,-89.90655,MILLINGTON,SHELBY COUNTY,TN,38053
1.10E+11,35.1873,-90.054882,MEMPHIS,SHELBY COUNTY,TN,38127
1.10E+11,35.10327,-90.09703,MEMPHIS,SHELBY COUNTY,TN,38109
1.10E+11,35.04099,-89.64872,COLLIERVILLE,SHELBY COUNTY,TN,38017
1.10E+11,35.0855,-90.13912,MEMPHIS,SHELBY COUNTY,TN,38113
1.10E+11,35.0714,-90.1461,MEMPHIS,SHELBY COUNTY,TN,38109
1.10E+11,35.195724,-90.050823,MEMPHIS,SHELBY COUNTY,TN,38127
1.10E+11,35.026282,-89.64828,COLLIERVILLE,SHELBY COUNTY,TN,38017
1.10E+11,35.079213,-90.083318,MEMPHIS,SHELBY COUNTY,TN,38109
1.10E+11,35.244585,-90.001936,MEMPHIS,SHELBY COUNTY,TN,38127
1.10E+11,36.26216,-85.95696,CARTHAGE,SMITH,TN,37030
1.10E+11,36.20218,-85.93752,GORDONSVILLE,SMITH,TN,38563
1.10E+11,36.19903,-85.93826,GORDONSVILLE,SMITH,TN,38563
1.10E+11,36.20016,-85.93795,GORDONSVILLE,SMITH,TN,38563
1.10E+11,36.1879,-85.94776,GORDONSVILLE,SMITH,TN,38563
1.10E+11,36.19625,-85.93903,GORDONSVILLE,SMITH,TN,38563
1.10E+11,36.19631,-85.9364,GORDONSVILLE,SMITH COUNTY,TN,38563
1.10E+11,36.18761,-85.94938,GORDONSVILLE,SMITH COUNTY,TN,38563
1.10E+11,36.261722,-85.932487,CARTHAGE,SMITH COUNTY,TN,37030
1.10E+11,36.20416,-85.94222,CARTHAGE,SMITH COUNTY,TN,37030
1.10E+11,36.19869,-85.93836,GORDONSVILLE,SMITH COUNTY,TN,38563
1.10E+11,36.524004,-87.909052,DOVER,STEWART,TN,37058 0423
1.10E+11,36.387008,-87.641422,CUMBERLAND CITY,STEWART,TN,37050
1.10E+11,36.3903,-87.6539,CUMBERLAND CITY,STEWART COUNTY,TN,37050
1.10E+11,36.37843,-87.64869,CUMBERLAND CITY,STEWART COUNTY,TN,37050
1.10E+11,36.53291,-82.30873,BLOUNTVILLE,SULLIVAN,TN,37617
1.10E+11,36.5246,-82.2694,BRISTOL,SULLIVAN,TN,37620
1.10E+11,36.54394,-82.55994,KINGSPORT,SULLIVAN,TN,37662
1.10E+11,36.54431,-82.58053,KINGSPORT,SULLIVAN,TN,37660
1.10E+11,36.54451,-82.56904,KINGSPORT,SULLIVAN,TN,37662
1.10E+11,36.43063,-82.30374,PINEY FLATS,SULLIVAN,TN,37686
1.10E+11,36.43187,-82.30157,PINEY FLATS,SULLIVAN,TN,37686 4418
1.10E+11,36.550252,-82.178894,BRISTOL,SULLIVAN,TN,37620 5698
1.10E+11,36.581334,-82.16391,BRISTOL,SULLIVAN,TN,37620 4048
1.10E+11,36.57456,-82.16945,BRISTOL,SULLIVAN,TN,37620
1.10E+11,36.560461,-82.172427,BRISTOL,SULLIVAN,TN,37620
1.10E+11,36.514934,-82.54814,KINGSPORT,SULLIVAN,TN,37660
1.10E+11,36.548601,-82.57398,KINGSPORT,SULLIVAN,TN,37660
1.10E+11,36.54426,-82.58539,KINGSPORT,SULLIVAN,TN,37660
1.10E+11,36.552799,-82.566424,KINGSPORT,SULLIVAN,TN,37660
1.10E+11,36.52274,-82.53011,KINGSPORT,SULLIVAN,TN,37662
1.10E+11,36.491615,-82.565948,KINGSPORT,SULLIVAN,TN,37664
1.10E+11,36.546072,-82.57127,KINGSPORT,SULLIVAN,TN,37662
1.10E+11,36.433767,-82.281295,PINEY FLATS,SULLIVAN,TN,37686
1.10E+11,36.443021,-82.276548,BLUFF CITY,SULLIVAN,TN,37618
1.10E+11,36.56246,-82.17337,BRISTOL,SULLIVAN,TN,37620
1.10E+11,36.58998,-82.17998,BRISTOL,SULLIVAN COUNTY,TN,37620
1.10E+11,36.54313,-82.18596,BRISTOL,SULLIVAN COUNTY,TN,37620
1.10E+11,36.54799,-82.56475,KINGSPORT,SULLIVAN COUNTY,TN,37660
1.10E+11,36.44152,-82.28871,PINEY FLATS,SULLIVAN COUNTY,TN,37686
1.10E+11,36.4375,-82.28827,PINEY FLATS,SULLIVAN COUNTY,TN,37686
1.10E+11,36.527055,-82.53858,KINGSPORT,SULLIVAN COUNTY,TN,37660
1.10E+11,36.5605,-82.171011,BRISTOL,SULLIVAN COUNTY,TN,37620
1.10E+11,36.435038,-82.290349,PINEY FLATS,SULLIVAN COUNTY,TN,37686
1.10E+11,36.43378,-82.29796,PINEY FLATS,SULLIVAN COUNTY,TN,37686
1.10E+11,36.43525,-82.29265,PINEY FLATS,SULLIVAN COUNTY,TN,37686
1.10E+11,36.558509,-82.167035,BRISTOL,SULLIVAN COUNTY,TN,37620
1.10E+11,36.45075,-82.5134,KINGSPORT,SULLIVAN COUNTY,TN,37663
1.10E+11,36.51369,-82.56237,KINGSPORT,SULLIVAN COUNTY,TN,37660
1.10E+11,36.43831,-82.28739,PINEY FLATS,SULLIVAN COUNTY,TN,37686
1.10E+11,36.53438,-82.54625,KINGSPORT,SULLIVAN COUNTY,TN,37660
1.10E+11,36.440381,-82.437366,KINGSPORT,SULLIVAN COUNTY,TN,37663
1.10E+11,36.51685,-82.54835,KINGSPORT,SULLIVAN COUNTY,TN,37660
1.10E+11,36.574129,-82.166974,BRISTOL,SULLIVAN COUNTY,TN,37620
1.10E+11,36.339387,-86.422779,GALLATIN,SUMNER,TN,37066
1.10E+11,36.38149,-86.47974,GALLATIN,SUMNER,TN,37066
1.10E+11,36.3802,-86.45246,GALLATIN,SUMNER,TN,37066
1.10E+11,36.37568,-86.4293,GALLATIN,SUMNER,TN,37066
1.10E+11,36.3818,-86.42743,GALLATIN,SUMNER,TN,37066
1.10E+11,36.56972,-86.24635,WESTMORELAND,SUMNER,TN,37186
1.10E+11,36.58085,-86.23817,WESTMORELAND,SUMNER,TN,37186
1.10E+11,36.30979,-86.62288,HENDERSONVILLE,SUMNER,TN,37075
1.10E+11,36.376128,-86.419903,GALLATIN,SUMNER,TN,37066
1.10E+11,36.60428,-86.5267,PORTLAND,SUMNER,TN,37148
1.10E+11,36.575739,-86.517302,PORTLAND,SUMNER,TN,37148
1.10E+11,36.38051,-86.43709,GALLATIN,SUMNER,TN,37066
1.10E+11,36.37665,-86.48368,GALLATIN,SUMNER,TN,37066
1.10E+11,36.59242,-86.52626,PORTLAND,SUMNER,TN,37148
1.10E+11,36.59996,-86.52431,PORTLAND,SUMNER,TN,37148
1.10E+11,36.60383,-86.52332,PORTLAND,SUMNER,TN,37148
1.10E+11,36.576786,-86.506488,PORTLAND,SUMNER,TN,37148
1.10E+11,36.576786,-86.506488,PORTLAND,SUMNER,TN,37148
1.10E+11,36.37903,-86.48342,GALLATIN,SUMNER,TN,37066 8089
1.10E+11,36.59847,-86.51878,PORTLAND,SUMNER,TN,37148
1.10E+11,36.60443,-86.53171,PORTLAND,SUMNER,TN,37148
1.10E+11,36.37157,-86.41736,GALLATIN,SUMNER COUNTY,TN,37066
1.10E+11,36.371493,-86.423903,GALLATIN,SUMNER COUNTY,TN,37066
1.10E+11,36.38474,-86.42417,GALLATIN,SUMNER COUNTY,TN,37066
1.10E+11,36.382686,-86.424157,GALLATIN,SUMNER COUNTY,TN,37066
1.10E+11,36.5995,-86.531658,PORTLAND,SUMNER COUNTY,TN,37148
1.10E+11,36.59591,-86.5194,PORTLAND,SUMNER COUNTY,TN,37148
1.10E+11,36.3246,-86.4026,GALLATIN,SUMNER COUNTY,TN,37066
1.10E+11,36.604475,-86.528148,PORTLAND,SUMNER COUNTY,TN,37148
1.10E+11,36.59815,-86.52732,PORTLAND,SUMNER COUNTY,TN,37148
1.10E+11,36.30988,-86.60123,HENDERSONVILLE,SUMNER COUNTY,TN,37075
1.10E+11,36.311438,-86.6475,HENDERSONVILLE,SUMNER COUNTY,TN,37075
1.10E+11,36.63187,-86.56733,PORTLAND,SUMNER COUNTY,TN,37148
1.10E+11,36.404228,-86.398566,GALLATIN,SUMNER COUNTY,TN,37066
1.10E+11,36.30709,-86.62015,HENDERSONVILLE,SUMNER COUNTY,TN,37075
1.10E+11,36.60383,-86.52332,PORTLAND,SUMNER COUNTY,TN,37148
1.10E+11,36.40414,-86.39797,GALLATIN,SUMNER COUNTY,TN,37066
1.10E+11,36.37497,-86.422,GALLATIN,SUMNER COUNTY,TN,37066
1.10E+11,36.3776,-86.4169,GALLATIN,SUMNER COUNTY,TN,37066
1.10E+11,36.57682,-86.51266,PORTLAND,SUMNER COUNTY,TN,37148
1.10E+11,36.551937,-86.499007,PORTLAND,SUMNER COUNTY,TN,37148
1.10E+11,35.579121,-89.63757,COVINGTON,TIPTON,TN,38019
1.10E+11,35.421279,-89.811555,MUNFORD,TIPTON,TN,38058 5238
1.10E+11,35.6192,-89.62271,COVINGTON,TIPTON,TN,38019
1.10E+11,35.58857,-89.63321,COVINGTON,TIPTON,TN,38019 0707
1.10E+11,35.554054,-89.644387,COVINGTON,TIPTON,TN,38019
1.10E+11,35.568137,-89.658412,COVINGTON,TIPTON,TN,38019
1.10E+11,35.538495,-89.650156,COVINGTON,TIPTON,TN,38019
1.10E+11,35.56329,-89.64105,COVINGTON,TIPTON,TN,38019
1.10E+11,35.57964,-89.641237,COVINGTON,TIPTON,TN,38019
1.10E+11,35.53935,-89.65106,COVINGTON,TIPTON COUNTY,TN,38019
1.10E+11,35.53526,-89.65855,COVINGTON,TIPTON COUNTY,TN,38019
1.10E+11,36.40062,-86.15705,HARTSVILLE,TROUSDALE,TN,37074
1.10E+11,36.40064,-86.15723,HARTSVILLE,TROUSDALE COUNTY,TN,37074
1.10E+11,36.14835,-82.41505,ERWIN,UNICOI,TN,37650
1.10E+11,36.12737,-82.4417,ERWIN,UNICOI,TN,37650
1.10E+11,36.1498,-82.41689,ERWIN,UNICOI,TN,37650
1.10E+11,36.099216,-82.467024,ERWIN,UNICOI,TN,37650
1.10E+11,36.14399,-82.4181,ERWIN,UNICOI,TN,37650
1.10E+11,36.101885,-82.4701,ERWIN,UNICOI COUNTY,TN,37650
1.10E+11,36.1308,-82.43172,ERWIN,UNICOI COUNTY,TN,37650
1.10E+11,36.18931,-82.36177,UNICOI,UNICOI COUNTY,TN,37692
1.10E+11,36.13076,-82.40916,ERWIN,UNICOI COUNTY,TN,37650
1.10E+11,36.12737,-82.4417,ERWIN,UNICOI COUNTY,TN,37650
1.10E+11,36.130155,-82.436149,ERWIN,UNICOI COUNTY,TN,37650
1.10E+11,36.20781,-83.88022,MAYNARDVILLE,UNION,TN,37807
1.10E+11,36.18445,-83.89911,MAYNARDVILLE,UNION COUNTY,TN,37807
1.10E+11,36.20738,-83.88271,MAYNARDVILLE,UNION COUNTY,TN,37807
1.10E+11,36.22911,-83.71536,LUTTRELL,UNION COUNTY,TN,37779
1.10E+11,35.729634,-85.457045,SPENCER,VAN BUREN COUNTY,TN,38585
1.10E+11,35.61234,-85.90597,MORRISON,WARREN,TN,37357
1.10E+11,35.646497,-85.834566,MORRISON,WARREN,TN,37357
1.10E+11,35.702639,-85.754809,MC MINNVILLE,WARREN,TN,37110
1.10E+11,35.6921,-85.76203,MC MINNVILLE,WARREN,TN,37110
1.10E+11,35.623479,-85.878579,MORRISON,WARREN,TN,37357
1.10E+11,35.768534,-85.624412,CAMPAIGN,WARREN,TN,38550
1.10E+11,35.67982,-85.76626,MC MINNVILLE,WARREN,TN,37110
1.10E+11,35.635438,-85.867405,MORRISON,WARREN COUNTY,TN,37357
1.10E+11,35.647276,-85.831512,MORRISON,WARREN COUNTY,TN,37357
1.10E+11,35.70146,-85.74213,MC MINNVILLE,WARREN COUNTY,TN,37110
1.10E+11,36.37536,-82.31844,JOHNSON CITY,WASHINGTON,TN,37601
1.10E+11,36.32983,-82.33793,JOHNSON CITY,WASHINGTON,TN,37601
1.10E+11,36.30963,-82.365793,JOHNSON CITY,WASHINGTON,TN,37604
1.10E+11,36.33171,-82.34206,JOHNSON CITY,WASHINGTON,TN,37601
1.10E+11,36.311,-82.35614,JOHNSON CITY,WASHINGTON,TN,37604
1.10E+11,36.348289,-82.327751,JOHNSON CITY,WASHINGTON,TN,37601
1.10E+11,36.35248,-82.36553,JOHNSON CITY,WASHINGTON,TN,37601
1.10E+11,36.296701,-82.341141,JOHNSON CITY,WASHINGTON,TN,37604
1.10E+11,36.34953,-82.33194,JOHNSON CITY,WASHINGTON,TN,37601
1.10E+11,36.30392,-82.33756,JOHNSON CITY,WASHINGTON,TN,37601
1.10E+11,36.36157,-82.30536,JOHNSON CITY,WASHINGTON,TN,37601
1.10E+11,36.29505,-82.33157,JOHNSON CITY,WASHINGTON,TN,37605
1.10E+11,36.35247,-82.36541,JOHNSON CITY,WASHINGTON,TN,37602
1.10E+11,36.296701,-82.341141,JOHNSON CITY,WASHINGTON,TN,37404
1.10E+11,36.4044,-82.47963,GRAY,WASHINGTON,TN,37615
1.10E+11,36.25278,-82.43113,JONESBOROUGH,WASHINGTON,TN,37659
1.10E+11,36.29666,-82.34106,JOHNSON CITY,WASHINGTON,TN,37604
1.10E+11,36.3477,-82.32548,JOHNSON CITY,WASHINGTON COUNTY,TN,37601
1.10E+11,36.33098,-82.34284,JOHNSON CITY,WASHINGTON COUNTY,TN,37601
1.10E+11,36.35381,-82.31913,JOHNSON CITY,WASHINGTON COUNTY,TN,37601
1.10E+11,36.275537,-82.490968,JONESBOROUGH,WASHINGTON COUNTY,TN,37659
1.10E+11,36.25313,-82.52619,JONESBOROUGH,WASHINGTON COUNTY,TN,37659
1.10E+11,36.35166,-82.30501,JOHNSON CITY,WASHINGTON COUNTY,TN,37601
1.10E+11,36.30048,-82.34239,JOHNSON CITY,WASHINGTON COUNTY,TN,37604
1.10E+11,36.265239,-82.556258,TELFORD,WASHINGTON COUNTY,TN,37690
1.10E+11,36.3521,-82.31723,JOHNSON CITY,WASHINGTON COUNTY,TN,37601
1.10E+11,36.308667,-82.333722,JOHNSON CITY,WASHINGTON COUNTY,TN,37601
1.10E+11,36.296213,-82.34621,JOHNSON CITY,WASHINGTON COUNTY,TN,37604
1.10E+11,36.262794,-82.558591,TELFORD,WASHINGTON COUNTY,TN,37690
1.10E+11,35.312934,-87.775883,WAYNESBORO,WAYNE,TN,38485
1.10E+11,35.383967,-87.999188,CLIFTON,WAYNE COUNTY,TN,38425
1.10E+11,35.326162,-87.737569,WAYNESBORO,WAYNE COUNTY,TN,38485
1.10E+11,36.2087,-88.60778,GLEASON,WEAKLEY,TN,38229
1.10E+11,36.36676,-88.85039,MARTIN,WEAKLEY,TN,38237
1.10E+11,36.300862,-88.844128,MARTIN,WEAKLEY,TN,38237
1.10E+11,36.3019,-88.6697,DRESDEN,WEAKLEY,TN,38225
1.10E+11,36.14038,-88.53083,MC KENZIE,WEAKLEY,TN,38201
1.10E+11,36.356026,-88.841418,MARTIN,WEAKLEY,TN,38237
1.10E+11,36.26073,-88.6638,DRESDEN,WEAKLEY,TN,38225
1.10E+11,36.174585,-88.806898,GREENFIELD,WEAKLEY COUNTY,TN,38230
1.10E+11,36.232803,-88.633783,GLEASON,WEAKLEY COUNTY,TN,38229
1.10E+11,36.26073,-88.6638,DRESDEN,WEAKLEY COUNTY,TN,38225
1.10E+11,36.333571,-88.820048,MARTIN,WEAKLEY COUNTY,TN,38237
1.10E+11,35.942513,-85.480784,SPARTA,WHITE,TN,38583
1.10E+11,35.94536,-85.48003,SPARTA,WHITE,TN,38583
1.10E+11,35.94819,-85.47692,SPARTA,WHITE,TN,38583
1.10E+11,35.90818,-85.50097,SPARTA,WHITE,TN,38583
1.10E+11,35.87693,-85.49542,SPARTA,WHITE,TN,38583
1.10E+11,35.942481,-85.480736,SPARTA,WHITE,TN,38583
1.10E+11,35.94002,-85.48134,SPARTA,WHITE COUNTY,TN,38583
1.10E+11,35.91524,-85.4861,SPARTA,WHITE COUNTY,TN,38583
1.10E+11,35.955,-85.57601,SPARTA,WHITE COUNTY,TN,38583
1.10E+11,35.90818,-85.50097,SPARTA,WHITE COUNTY,TN,38583
1.10E+11,35.92852,-86.87063,FRANKLIN,WILLIAMSON,TN,37064
1.10E+11,35.92455,-86.85705,FRANKLIN,WILLIAMSON,TN,37064
1.10E+11,35.89954,-86.88232,FRANKLIN,WILLIAMSON,TN,37064
1.10E+11,35.97021,-87.13046,FAIRVIEW,WILLIAMSON,TN,37062 0300
1.10E+11,35.80229,-86.66345,COLLEGE GROVE,WILLIAMSON,TN,37046
1.10E+11,35.975856,-86.806513,BRENTWOOD,WILLIAMSON,TN,37027
1.10E+11,35.96743,-86.81562,BRENTWOOD,WILLIAMSON,TN,37027 7940
1.10E+11,35.9024,-86.87564,FRANKLIN,WILLIAMSON,TN,37064
1.10E+11,35.92455,-86.85705,FRANKLIN,WILLIAMSON,TN,37065 0665
1.10E+11,35.899471,-86.881607,FRANKLIN,WILLIAMSON,TN,37064
1.10E+11,35.926452,-86.831049,FRANKLIN,WILLIAMSON,TN,37064
1.10E+11,35.95956,-86.83091,FRANKLIN,WILLIAMSON,TN,37067
1.10E+11,35.926084,-86.859534,FRANKLIN,WILLIAMSON COUNTY,TN,37064
1.10E+11,35.89352,-86.86804,FRANKLIN,WILLIAMSON COUNTY,TN,37064
1.10E+11,35.90511,-86.87051,FRANKLIN,WILLIAMSON COUNTY,TN,37064
1.10E+11,35.91477,-86.86626,FRANKLIN,WILLIAMSON COUNTY,TN,37064
1.10E+11,35.89841,-86.8857,FRANKLIN,WILLIAMSON COUNTY,TN,37064
1.10E+11,35.90819,-86.87845,FRANKLIN,WILLIAMSON COUNTY,TN,37064
1.10E+11,35.89377,-86.8727,FRANKLIN,WILLIAMSON COUNTY,TN,37064
1.10E+11,35.886928,-86.907726,FRANKLIN,WILLIAMSON COUNTY,TN,37064
1.10E+11,36.18494,-86.27456,LEBANON,WILSON,TN,37090
1.10E+11,36.19015,-86.27404,LEBANON,WILSON,TN,37087
1.10E+11,36.21274,-86.29332,LEBANON,WILSON,TN,37087
1.10E+11,36.21338,-86.32204,LEBANON,WILSON,TN,37087 3209
1.10E+11,36.210278,-86.521389,MOUNT JULIET,WILSON,TN,37122
1.10E+11,36.19428,-86.5176,MOUNT JULIET,WILSON,TN,37122
1.10E+11,36.18556,-86.42891,LEBANON,WILSON,TN,37090
1.10E+11,36.229206,-86.320127,LEBANON,WILSON COUNTY,TN,37087
1.10E+11,36.23226,-86.32709,LEBANON,WILSON COUNTY,TN,37087
1.10E+11,36.21732,-86.32041,LEBANON,WILSON COUNTY,TN,37087
1.10E+11,36.21938,-86.31743,LEBANON,WILSON COUNTY,TN,37087
1.10E+11,36.19778,-86.5153,MOUNT JULIET,WILSON COUNTY,TN,37122
1.10E+11,36.19046,-86.41999,LEBANON,WILSON COUNTY,TN,37090
1.10E+11,36.201678,-86.517811,MOUNT JULIET,WILSON COUNTY,TN,37122
1.10E+11,36.20324,-86.2729,LEBANON,WILSON COUNTY,TN,37087
1.10E+11,36.18614,-86.27099,LEBANON,WILSON COUNTY,TN,37090
1.10E+11,36.17268,-86.2884,LEBANON,WILSON COUNTY,TN,37090
1.10E+11,36.1738,-86.48664,MOUNT JULIET,WILSON COUNTY,TN,37122
1.10E+11,36.19019,-86.27389,LEBANON,WILSON COUNTY,TN,37087
1.10E+11,36.22199,-86.424875,LEBANON,WILSON COUNTY,TN,37090
1.10E+11,36.12383,-86.40674,LEBANON,WILSON COUNTY,TN,37090
1.10E+11,36.19084,-86.41323,LEBANON,WILSON COUNTY,TN,37090
1.10E+11,36.038935,-86.393594,LEBANON,WILSON COUNTY,TN,37090
1.10E+11,36.13451,-86.403894,LEBANON,WILSON COUNTY,TN,37090
